{
"type": "FeatureCollection",
"features": [
{"type":"Feature","properties":{"uf":"RO","name":"Rondônia"},"geometry":{"type":"Polygon","coordinates":[[[-60.709,-13.693],[-60.88,-13.617],[-60.919,-13.548],[-61.041,-13.508],[-61.248,-13.496],[-61.47,-13.555],[-61.586,-13.501],[-61.757,-13.541],[-61.869,-13.528],[-61.887,-13.441],[-62.116,-13.258],[-62.115,-13.164],[-62.215,-13.111],[-62.352,-13.143],[-62.443,-13.08],[-62.613,-13.041],[-62.661,-12.969],[-62.734,-13.022],[-62.892,-12.859],[-63.007,-12.84],[-63.095,-12.684],[-63.163,-12.635],[-63.242,-12.691],[-63.384,-12.653],[-63.437,-12.564],[-63.502,-12.567],[-63.621,-12.473],[-63.786,-12.428],[-63.873,-12.447],[-63.963,-12.53],[-64.057,-12.492],[-64.174,-12.501],[-64.234,-12.455],[-64.406,-12.447],[-64.499,-12.367],[-64.513,-12.223],[-64.552,-12.242],[-64.713,-12.174],[-64.698,-12.104],[-64.76,-12.102],[-64.84,-12.011],[-64.917,-12.028],[-65.029,-11.998],[-65.019,-11.892],[-65.071,-11.856],[-65.091,-11.708],[-65.205,-11.749],[-65.257,-11.696],[-65.218,-11.652],[-65.212,-11.53],[-65.305,-11.502],[-65.36,-11.258],[-65.351,-11.122],[-65.289,-11.094],[-65.251,-10.984],[-65.276,-10.871],[-65.362,-10.802],[-65.344,-10.7],[-65.405,-10.641],[-65.43,-10.481],[-65.392,-10.374],[-65.289,-10.22],[-65.329,-10.043],[-65.329,-9.921],[-65.287,-9.84],[-65.357,-9.72],[-65.443,-9.669],[-65.513,-9.793],[-65.624,-9.836],[-65.685,-9.749],[-65.871,-9.753],[-66.033,-9.789],[-66.152,-9.786],[-66.358,-9.864],[-66.627,-9.898],[-66.81,-9.818],[-66.775,-9.753],[-66.501,-9.634],[-66.392,-9.5],[-66.375,-9.426],[-66.26,-9.411],[-65.97,-9.413],[-65.825,-9.53],[-65.8,-9.585],[-65.73,-9.563],[-65.679,-9.451],[-65.588,-9.414],[-65.503,-9.47],[-65.432,-9.459],[-65.44,-9.312],[-65.377,-9.324],[-65.247,-9.258],[-65.212,-9.279],[-65.143,-9.447],[-65.053,-9.402],[-64.92,-9.22],[-64.94,-9.125],[-64.871,-9.012],[-64.808,-8.986],[-64.611,-9.016],[-64.323,-8.929],[-64.311,-8.996],[-64.142,-8.945],[-64.158,-8.843],[-64.125,-8.717],[-64.035,-8.694],[-63.986,-8.586],[-63.925,-8.575],[-63.973,-8.478],[-63.944,-8.331],[-63.871,-8.289],[-63.791,-8.333],[-63.723,-8.249],[-63.622,-8.03],[-63.621,-7.976],[-62.867,-7.976],[-62.692,-8.093],[-62.655,-8.229],[-62.585,-8.272],[-62.518,-8.385],[-62.465,-8.34],[-62.361,-8.398],[-62.336,-8.609],[-62.269,-8.576],[-62.184,-8.599],[-62.125,-8.802],[-62.031,-8.8],[-61.979,-8.873],[-61.86,-8.853],[-61.841,-8.739],[-61.775,-8.748],[-61.713,-8.688],[-61.626,-8.729],[-61.583,-8.799],[-61.469,-8.92],[-61.556,-9.092],[-61.525,-9.243],[-61.6,-9.256],[-61.628,-9.352],[-61.559,-9.385],[-61.582,-9.459],[-61.508,-9.54],[-61.477,-9.63],[-61.532,-9.712],[-61.508,-9.861],[-61.601,-10.15],[-61.577,-10.249],[-61.462,-10.42],[-61.499,-10.699],[-61.48,-10.788],[-61.525,-10.856],[-61.55,-10.986],[-61.001,-10.992],[-60.46,-10.99],[-60.392,-11.094],[-60.301,-11.057],[-60.191,-11.114],[-60.075,-11.105],[-59.995,-11.148],[-59.959,-11.295],[-59.917,-11.338],[-59.934,-11.424],[-60.115,-11.591],[-60.103,-11.819],[-60.066,-11.891],[-59.984,-11.915],[-59.962,-12.056],[-59.9,-12.117],[-59.887,-12.245],[-59.779,-12.341],[-59.844,-12.467],[-59.948,-12.599],[-60.029,-12.619],[-60.079,-12.881],[-60.117,-12.96],[-60.183,-12.968],[-60.284,-13.085],[-60.372,-13.319],[-60.388,-13.455],[-60.511,-13.504],[-60.686,-13.625],[-60.709,-13.693]]]}},
{"type":"Feature","properties":{"uf":"AC","name":"Acre"},"geometry":{"type":"Polygon","coordinates":[[[-73.802,-7.112],[-72.585,-7.552],[-70.055,-7.845],[-68.647,-9.049],[-67.517,-9.561],[-67.325,-9.592],[-66.81,-9.818],[-66.627,-9.898],[-66.871,-10.081],[-67.01,-10.252],[-67.17,-10.338],[-67.316,-10.319],[-67.32,-10.382],[-67.424,-10.391],[-67.436,-10.448],[-67.605,-10.534],[-67.704,-10.7],[-67.828,-10.651],[-68.002,-10.648],[-68.105,-10.715],[-68.104,-10.773],[-68.279,-10.989],[-68.487,-11.051],[-68.543,-11.111],[-68.716,-11.146],[-68.811,-10.994],[-68.912,-11.022],[-68.966,-10.988],[-69.233,-10.94],[-69.423,-10.927],[-69.719,-10.975],[-69.812,-10.926],[-69.949,-10.925],[-70.202,-11.054],[-70.308,-11.071],[-70.421,-11.039],[-70.53,-10.935],[-70.621,-11],[-70.621,-9.832],[-70.527,-9.726],[-70.598,-9.606],[-70.495,-9.425],[-70.57,-9.432],[-70.79,-9.632],[-70.869,-9.665],[-70.998,-9.818],[-71.163,-9.875],[-71.211,-9.966],[-71.377,-10],[-72.18,-10],[-72.141,-9.877],[-72.153,-9.797],[-72.271,-9.745],[-72.247,-9.656],[-72.282,-9.55],[-72.366,-9.49],[-72.524,-9.489],[-72.72,-9.412],[-73.212,-9.412],[-73.022,-9.226],[-72.94,-9.069],[-72.995,-8.92],[-73.056,-8.907],[-73.142,-8.723],[-73.285,-8.666],[-73.344,-8.602],[-73.332,-8.475],[-73.537,-8.345],[-73.627,-8.021],[-73.746,-7.953],[-73.682,-7.79],[-73.822,-7.717],[-73.99,-7.536],[-73.919,-7.465],[-73.966,-7.352],[-73.876,-7.382],[-73.747,-7.344],[-73.699,-7.296],[-73.802,-7.112]]]}},
{"type":"Feature","properties":{"uf":"AM","name":"Amazonas"},"geometry":{"type":"Polygon","coordinates":[[[-58.895,0.264],[-58.895,-0.011],[-58.864,-0.078],[-58.869,-0.347],[-58.725,-0.438],[-58.706,-0.68],[-58.434,-0.892],[-58.428,-1.025],[-58.317,-1.148],[-58.258,-1.131],[-58.163,-1.23],[-58.059,-1.106],[-57.969,-1.163],[-57.999,-1.331],[-57.96,-1.397],[-57.825,-1.438],[-57.718,-1.503],[-57.689,-1.587],[-57.544,-1.611],[-57.353,-1.737],[-57.202,-1.713],[-57.079,-1.803],[-57.028,-1.918],[-56.859,-2.016],[-56.748,-2.011],[-56.721,-2.059],[-56.761,-2.174],[-56.613,-2.21],[-56.527,-2.139],[-56.414,-2.176],[-56.317,-2.14],[-56.228,-2.056],[-56.099,-2.027],[-56.204,-2.183],[-56.389,-2.278],[-56.464,-2.432],[-56.402,-2.456],[-56.61,-2.896],[-57,-3.759],[-57.586,-5.001],[-58.034,-5.978],[-58.267,-6.476],[-58.427,-6.616],[-58.482,-6.781],[-58.435,-6.909],[-58.335,-6.986],[-58.181,-7.182],[-58.137,-7.356],[-58.213,-7.458],[-58.202,-7.621],[-58.3,-7.777],[-58.378,-7.827],[-58.375,-7.899],[-58.293,-8.071],[-58.355,-8.393],[-58.418,-8.489],[-58.389,-8.595],[-58.437,-8.703],[-58.328,-8.712],[-58.442,-8.799],[-58.963,-8.803],[-60.42,-8.797],[-61.583,-8.799],[-61.626,-8.729],[-61.713,-8.688],[-61.775,-8.748],[-61.841,-8.739],[-61.86,-8.853],[-61.979,-8.873],[-62.031,-8.8],[-62.125,-8.802],[-62.184,-8.599],[-62.269,-8.576],[-62.336,-8.609],[-62.361,-8.398],[-62.465,-8.34],[-62.518,-8.385],[-62.585,-8.272],[-62.655,-8.229],[-62.692,-8.093],[-62.867,-7.976],[-63.621,-7.976],[-63.622,-8.03],[-63.723,-8.249],[-63.791,-8.333],[-63.871,-8.289],[-63.944,-8.331],[-63.973,-8.478],[-63.925,-8.575],[-63.986,-8.586],[-64.035,-8.694],[-64.125,-8.717],[-64.158,-8.843],[-64.142,-8.945],[-64.311,-8.996],[-64.323,-8.929],[-64.611,-9.016],[-64.808,-8.986],[-64.871,-9.012],[-64.94,-9.125],[-64.92,-9.22],[-65.053,-9.402],[-65.143,-9.447],[-65.212,-9.279],[-65.247,-9.258],[-65.377,-9.324],[-65.44,-9.312],[-65.432,-9.459],[-65.503,-9.47],[-65.588,-9.414],[-65.679,-9.451],[-65.73,-9.563],[-65.8,-9.585],[-65.825,-9.53],[-65.97,-9.413],[-66.26,-9.411],[-66.375,-9.426],[-66.392,-9.5],[-66.501,-9.634],[-66.775,-9.753],[-66.81,-9.818],[-67.325,-9.592],[-67.517,-9.561],[-68.647,-9.049],[-70.055,-7.845],[-72.585,-7.552],[-73.802,-7.112],[-73.727,-7.022],[-73.755,-6.942],[-73.643,-6.762],[-73.516,-6.677],[-73.381,-6.635],[-73.354,-6.595],[-73.213,-6.578],[-73.138,-6.498],[-73.109,-6.41],[-73.165,-6.274],[-73.25,-6.145],[-73.237,-6.032],[-72.992,-5.704],[-72.957,-5.465],[-72.87,-5.299],[-72.888,-5.166],[-72.738,-5.06],[-72.607,-5.028],[-72.597,-4.983],[-72.401,-4.884],[-72.366,-4.803],[-72.22,-4.771],[-71.955,-4.61],[-71.907,-4.515],[-71.809,-4.492],[-71.617,-4.529],[-71.476,-4.433],[-71.277,-4.441],[-71.214,-4.378],[-70.946,-4.377],[-70.759,-4.159],[-70.616,-4.193],[-70.522,-4.137],[-70.293,-4.16],[-70.308,-4.247],[-70.258,-4.31],[-70.153,-4.331],[-70.156,-4.275],[-70.076,-4.32],[-69.973,-4.324],[-69.933,-4.219],[-69.534,-2.001],[-69.43,-1.387],[-69.4,-1.371],[-69.431,-1.242],[-69.398,-1.144],[-69.464,-0.967],[-69.623,-0.732],[-69.574,-0.65],[-69.611,-0.513],[-69.718,-0.455],[-69.845,-0.346],[-69.923,-0.331],[-70.057,-0.187],[-70.042,-0.124],[-70.046,0.562],[-69.908,0.585],[-69.804,0.572],[-69.687,0.663],[-69.633,0.635],[-69.481,0.735],[-69.35,0.614],[-69.272,0.602],[-69.184,0.654],[-69.116,0.644],[-69.188,0.747],[-69.136,0.87],[-69.198,0.998],[-69.322,1.088],[-69.415,1.043],[-69.44,1.075],[-69.705,1.08],[-69.703,1.118],[-69.847,1.078],[-69.846,1.708],[-69.644,1.73],[-69.534,1.777],[-69.391,1.73],[-68.157,1.732],[-68.267,1.827],[-68.243,1.927],[-68.141,1.985],[-68.087,1.901],[-67.941,1.831],[-67.779,2.031],[-67.62,2.024],[-67.522,2.17],[-67.389,2.244],[-67.343,2.206],[-67.337,2.098],[-67.278,1.876],[-67.157,1.849],[-67.097,1.733],[-67.072,1.443],[-67.088,1.167],[-66.857,1.23],[-66.318,0.755],[-66.213,0.781],[-66.151,0.745],[-66.07,0.805],[-65.971,0.806],[-65.937,0.882],[-65.739,1],[-65.586,1.009],[-65.508,0.916],[-65.504,0.852],[-65.591,0.722],[-65.564,0.676],[-65.453,0.685],[-65.397,0.75],[-65.398,0.821],[-65.329,0.932],[-65.165,0.951],[-65.151,1.117],[-65.103,1.157],[-65.022,1.115],[-64.961,1.19],[-64.794,1.269],[-64.722,1.239],[-64.702,1.291],[-64.591,1.337],[-64.531,1.435],[-64.397,1.527],[-64.351,1.518],[-64.4,1.395],[-64.343,1.384],[-64.302,1.468],[-64.112,1.589],[-64.065,1.676],[-64.062,1.931],[-63.975,1.991],[-63.83,1.968],[-63.562,2.132],[-63.398,2.147],[-63.372,2.212],[-63.276,2.154],[-63.146,2.173],[-63.12,2.097],[-63.024,2.015],[-62.839,2.016],[-62.703,1.934],[-62.729,1.7],[-62.805,1.591],[-62.64,1.438],[-62.521,1.084],[-62.472,1.086],[-62.443,0.959],[-62.485,0.876],[-62.463,0.777],[-62.538,0.675],[-62.519,0.444],[-62.446,0.379],[-62.453,0.207],[-62.409,0.075],[-62.326,-0.003],[-62.32,-0.096],[-62.242,-0.17],[-62.253,-0.27],[-62.189,-0.322],[-62.28,-0.451],[-62.312,-0.576],[-62.287,-0.632],[-62.375,-0.708],[-62.487,-0.681],[-62.501,-0.781],[-62.376,-0.836],[-62.259,-0.976],[-62.172,-1.006],[-62.1,-1.097],[-62.017,-1.142],[-61.897,-1.395],[-61.798,-1.381],[-61.605,-1.448],[-61.475,-1.579],[-61.548,-1.429],[-61.619,-1.395],[-61.582,-1.353],[-61.627,-1.294],[-61.543,-1.062],[-61.581,-0.978],[-61.536,-0.754],[-61.458,-0.655],[-61.234,-0.562],[-61.223,-0.5],[-61.079,-0.506],[-61.057,-0.544],[-60.934,-0.548],[-60.928,-0.605],[-60.815,-0.69],[-60.762,-0.849],[-60.663,-0.881],[-60.536,-0.869],[-60.498,-0.781],[-60.347,-0.74],[-60.305,-0.666],[-60.4,-0.517],[-60.346,-0.438],[-60.305,-0.26],[-60.204,-0.03],[-60.14,0.027],[-60.134,0.104],[-60.059,0.163],[-60.038,0.264],[-58.895,0.264]]]}},
{"type":"Feature","properties":{"uf":"RR","name":"Roraima"},"geometry":{"type":"Polygon","coordinates":[[[-63.372,2.212],[-63.372,2.426],[-63.52,2.422],[-63.604,2.457],[-63.75,2.442],[-63.834,2.492],[-63.934,2.457],[-64.048,2.518],[-63.986,2.649],[-64.015,2.812],[-64.07,2.918],[-64.214,3.091],[-64.115,3.335],[-64.184,3.489],[-64.196,3.579],[-64.289,3.7],[-64.479,3.783],[-64.58,3.928],[-64.674,4.005],[-64.732,4.12],[-64.811,4.175],[-64.78,4.287],[-64.685,4.239],[-64.624,4.135],[-64.561,4.102],[-64.432,4.135],[-64.172,4.129],[-64.109,4.085],[-64.036,3.934],[-63.969,3.879],[-63.85,3.95],[-63.7,3.944],[-63.661,4.01],[-63.581,3.886],[-63.511,3.847],[-63.412,3.912],[-63.393,3.98],[-63.205,3.949],[-63.234,3.882],[-63.204,3.812],[-63.123,3.805],[-63.073,3.686],[-62.952,3.612],[-62.838,3.736],[-62.749,3.673],[-62.731,3.71],[-62.787,3.929],[-62.736,4.04],[-62.533,4.047],[-62.542,4.109],[-62.438,4.183],[-62.148,4.079],[-61.993,4.175],[-61.819,4.168],[-61.75,4.255],[-61.562,4.251],[-61.508,4.322],[-61.521,4.384],[-61.448,4.439],[-61.352,4.419],[-61.267,4.538],[-61.126,4.506],[-60.998,4.516],[-60.934,4.585],[-60.948,4.656],[-60.721,4.777],[-60.584,4.956],[-60.645,5.059],[-60.697,5.229],[-60.546,5.194],[-60.328,5.206],[-60.212,5.272],[-60.133,5.225],[-60.096,5.141],[-59.972,5.075],[-60.036,4.791],[-60.026,4.706],[-60.123,4.605],[-60.161,4.518],[-59.972,4.509],[-59.736,4.424],[-59.676,4.347],[-59.732,4.287],[-59.731,4.181],[-59.623,4.129],[-59.654,4.069],[-59.516,3.946],[-59.565,3.916],[-59.596,3.796],[-59.665,3.782],[-59.668,3.704],[-59.873,3.564],[-59.805,3.51],[-59.841,3.425],[-59.806,3.354],[-59.912,3.196],[-59.908,3.113],[-59.956,3.081],[-59.984,2.929],[-59.988,2.68],[-59.898,2.482],[-59.899,2.363],[-59.74,2.293],[-59.726,2.02],[-59.746,1.852],[-59.658,1.823],[-59.69,1.756],[-59.534,1.716],[-59.373,1.506],[-59.34,1.518],[-59.253,1.388],[-59.049,1.323],[-58.918,1.317],[-58.895,1.228],[-58.895,0.264],[-60.038,0.264],[-60.059,0.163],[-60.134,0.104],[-60.14,0.027],[-60.204,-0.03],[-60.305,-0.26],[-60.346,-0.438],[-60.4,-0.517],[-60.305,-0.666],[-60.347,-0.74],[-60.498,-0.781],[-60.536,-0.869],[-60.663,-0.881],[-60.762,-0.849],[-60.815,-0.69],[-60.928,-0.605],[-60.934,-0.548],[-61.057,-0.544],[-61.079,-0.506],[-61.223,-0.5],[-61.234,-0.562],[-61.458,-0.655],[-61.536,-0.754],[-61.581,-0.978],[-61.543,-1.062],[-61.627,-1.294],[-61.582,-1.353],[-61.619,-1.395],[-61.548,-1.429],[-61.475,-1.579],[-61.605,-1.448],[-61.798,-1.381],[-61.897,-1.395],[-62.017,-1.142],[-62.1,-1.097],[-62.172,-1.006],[-62.259,-0.976],[-62.376,-0.836],[-62.501,-0.781],[-62.487,-0.681],[-62.375,-0.708],[-62.287,-0.632],[-62.312,-0.576],[-62.28,-0.451],[-62.189,-0.322],[-62.253,-0.27],[-62.242,-0.17],[-62.32,-0.096],[-62.326,-0.003],[-62.409,0.075],[-62.453,0.207],[-62.446,0.379],[-62.519,0.444],[-62.538,0.675],[-62.463,0.777],[-62.485,0.876],[-62.443,0.959],[-62.472,1.086],[-62.521,1.084],[-62.64,1.438],[-62.805,1.591],[-62.729,1.7],[-62.703,1.934],[-62.839,2.016],[-63.024,2.015],[-63.12,2.097],[-63.146,2.173],[-63.276,2.154],[-63.372,2.212]]]}},
{"type":"Feature","properties":{"uf":"PA","name":"Pará"},"geometry":{"type":"MultiPolygon","coordinates":[[[[-46.104,-1.202],[-46.162,-1.282],[-46.115,-1.352],[-46.176,-1.477],[-46.134,-1.582],[-46.155,-1.675],[-46.221,-1.731],[-46.295,-1.727],[-46.31,-1.806],[-46.211,-1.831],[-46.283,-2.154],[-46.433,-2.301],[-46.43,-2.537],[-46.507,-2.617],[-46.622,-2.645],[-46.67,-2.735],[-46.59,-2.846],[-46.673,-2.893],[-46.647,-2.97],[-46.689,-3.093],[-46.75,-3.124],[-46.815,-3.311],[-46.884,-3.337],[-46.956,-3.426],[-46.97,-3.512],[-47.038,-3.564],[-47.039,-3.673],[-47.085,-3.857],[-47.195,-3.986],[-47.319,-4.048],[-47.372,-4.245],[-47.442,-4.287],[-47.615,-4.56],[-47.68,-4.609],[-47.816,-4.615],[-48.755,-5.349],[-48.597,-5.422],[-48.393,-5.394],[-48.279,-5.54],[-48.138,-5.603],[-48.172,-5.709],[-48.276,-5.726],[-48.292,-5.837],[-48.233,-5.948],[-48.335,-6.004],[-48.288,-6.098],[-48.432,-6.177],[-48.383,-6.38],[-48.5,-6.351],[-48.607,-6.448],[-48.664,-6.568],[-48.652,-6.64],[-48.769,-6.731],[-49.019,-6.784],[-49.209,-6.925],[-49.185,-7.235],[-49.234,-7.329],[-49.378,-7.496],[-49.342,-7.656],[-49.161,-7.791],[-49.163,-7.921],[-49.221,-8.204],[-49.283,-8.38],[-49.349,-8.418],[-49.41,-8.58],[-49.592,-8.839],[-49.684,-8.856],[-49.843,-9.027],[-49.905,-9.17],[-50.038,-9.289],[-50.105,-9.475],[-50.09,-9.546],[-50.225,-9.841],[-51.304,-9.773],[-52.257,-9.708],[-54.613,-9.536],[-56.672,-9.367],[-56.754,-9.406],[-56.82,-9.246],[-56.995,-9.234],[-57.06,-9.182],[-57.039,-9.098],[-57.204,-8.921],[-57.289,-8.916],[-57.416,-8.859],[-57.417,-8.793],[-57.593,-8.756],[-57.633,-8.527],[-57.687,-8.407],[-57.642,-8.22],[-57.832,-7.961],[-57.835,-7.881],[-57.897,-7.678],[-58.061,-7.395],[-58.137,-7.356],[-58.181,-7.182],[-58.335,-6.986],[-58.435,-6.909],[-58.482,-6.781],[-58.427,-6.616],[-58.267,-6.476],[-58.034,-5.978],[-57.586,-5.001],[-57,-3.759],[-56.61,-2.896],[-56.402,-2.456],[-56.464,-2.432],[-56.389,-2.278],[-56.204,-2.183],[-56.099,-2.027],[-56.228,-2.056],[-56.317,-2.14],[-56.414,-2.176],[-56.527,-2.139],[-56.613,-2.21],[-56.761,-2.174],[-56.721,-2.059],[-56.748,-2.011],[-56.859,-2.016],[-57.028,-1.918],[-57.079,-1.803],[-57.202,-1.713],[-57.353,-1.737],[-57.544,-1.611],[-57.689,-1.587],[-57.718,-1.503],[-57.825,-1.438],[-57.96,-1.397],[-57.999,-1.331],[-57.969,-1.163],[-58.059,-1.106],[-58.163,-1.23],[-58.258,-1.131],[-58.317,-1.148],[-58.428,-1.025],[-58.434,-0.892],[-58.706,-0.68],[-58.725,-0.438],[-58.869,-0.347],[-58.864,-0.078],[-58.895,-0.011],[-58.895,0.264],[-58.895,1.228],[-58.821,1.171],[-58.716,1.241],[-58.71,1.29],[-58.496,1.268],[-58.472,1.374],[-58.505,1.465],[-58.386,1.47],[-58.332,1.591],[-58.233,1.548],[-58.161,1.56],[-58.129,1.499],[-58.006,1.517],[-57.981,1.659],[-57.927,1.645],[-57.792,1.727],[-57.65,1.682],[-57.534,1.708],[-57.451,1.806],[-57.433,1.906],[-57.346,1.98],[-57.253,1.949],[-57.087,2.027],[-57.001,1.907],[-56.92,1.93],[-56.801,1.874],[-56.621,1.946],[-56.58,1.906],[-56.437,1.952],[-56.335,1.937],[-56.241,1.88],[-56.153,1.891],[-55.999,1.831],[-55.904,1.888],[-55.935,1.997],[-55.902,2.029],[-56.043,2.228],[-56.132,2.264],[-56.09,2.372],[-56.051,2.335],[-55.99,2.417],[-55.978,2.527],[-55.935,2.534],[-55.747,2.411],[-55.5,2.443],[-55.385,2.419],[-55.32,2.516],[-55.235,2.504],[-55.123,2.568],[-55.103,2.526],[-54.954,2.584],[-54.872,2.434],[-54.796,2.318],[-54.763,2.202],[-54.806,2.139],[-54.804,2.026],[-54.745,1.776],[-54.602,1.785],[-54.496,1.747],[-54.352,1.754],[-54.201,1.646],[-54.144,1.641],[-54.069,1.501],[-53.896,1.455],[-53.888,1.408],[-53.538,1.341],[-53.525,1.212],[-53.426,1.226],[-53.402,1.154],[-53.459,1.134],[-53.411,0.929],[-53.19,0.768],[-53.106,0.68],[-53.147,0.6],[-53.175,0.382],[-53.094,0.259],[-53.094,0.195],[-52.983,0.033],[-52.933,-0.142],[-52.836,-0.186],[-52.684,-0.314],[-52.695,-0.496],[-52.64,-0.585],[-52.535,-0.574],[-52.497,-0.711],[-52.511,-0.857],[-52.412,-0.863],[-52.417,-1.026],[-52.333,-1.116],[-52.12,-1.146],[-52.07,-1.236],[-52.055,-1.177],[-51.778,-1.14],[-51.7,-1.063],[-51.683,-0.795],[-51.595,-0.65],[-51.458,-0.513],[-51.362,-0.368],[-51.348,-0.3],[-51.208,-0.117],[-51.069,-0.079],[-50.975,0.042],[-50.785,0.112],[-50.668,0.185],[-50.553,0.313],[-50.436,0.6],[-50.329,0.674],[-50.226,0.696],[-50.133,0.62],[-50.073,0.636],[-50.036,0.534],[-50.077,0.463],[-50.173,0.398],[-50.168,0.34],[-49.889,0.323],[-49.582,0.419],[-49.489,0.334],[-49.633,0.241],[-49.7,0.151],[-49.632,0.075],[-49.583,0.09],[-49.397,0.062],[-49.359,-0.026],[-49.432,-0.088],[-49.422,-0.168],[-49.196,-0.131],[-49.137,-0.168],[-49.017,-0.16],[-48.918,-0.23],[-48.81,-0.215],[-48.744,-0.25],[-48.429,-0.227],[-48.375,-0.303],[-48.441,-0.412],[-48.506,-0.81],[-48.475,-0.874],[-48.366,-0.919],[-48.268,-0.903],[-48.172,-0.816],[-48.051,-0.659],[-47.977,-0.686],[-47.909,-0.577],[-47.831,-0.61],[-47.704,-0.535],[-47.633,-0.602],[-47.631,-0.706],[-47.589,-0.576],[-47.531,-0.616],[-47.501,-0.709],[-47.474,-0.592],[-47.316,-0.592],[-47.171,-0.676],[-47.16,-0.762],[-47.121,-0.676],[-47.064,-0.795],[-46.975,-0.704],[-46.943,-0.859],[-46.836,-0.747],[-46.796,-0.87],[-46.665,-0.791],[-46.596,-0.842],[-46.636,-0.969],[-46.576,-0.981],[-46.496,-0.872],[-46.41,-0.888],[-46.48,-0.924],[-46.469,-1.025],[-46.288,-0.999],[-46.265,-0.913],[-46.201,-0.887],[-46.184,-1.053],[-46.095,-1.021],[-46.063,-1.106],[-46.104,-1.202]]],[[[-49.626,0.19],[-49.626,0.19],[-49.626,0.19],[-49.626,0.19]]],[[[-49.45,0.117],[-49.45,0.117],[-49.45,0.117],[-49.45,0.117]]],[[[-49.618,0.199],[-49.618,0.199],[-49.618,0.199],[-49.618,0.199]]],[[[-48.876,-0.182],[-48.876,-0.182],[-48.876,-0.182],[-48.876,-0.182]]],[[[-46.311,-1.006],[-46.311,-1.006],[-46.311,-1.006],[-46.311,-1.006]]]]}},
{"type":"Feature","properties":{"uf":"AP","name":"Amapá"},"geometry":{"type":"MultiPolygon","coordinates":[[[[-54.872,2.434],[-54.744,2.472],[-54.685,2.447],[-54.692,2.361],[-54.602,2.337],[-54.437,2.21],[-54.189,2.179],[-54.001,2.23],[-53.742,2.375],[-53.749,2.313],[-53.473,2.257],[-53.323,2.347],[-53.229,2.262],[-53.279,2.186],[-53.084,2.213],[-52.988,2.169],[-52.904,2.189],[-52.873,2.258],[-52.661,2.374],[-52.527,2.582],[-52.478,2.782],[-52.328,3.071],[-52.351,3.123],[-52.292,3.226],[-52.234,3.241],[-52.087,3.49],[-51.989,3.627],[-51.973,3.706],[-51.799,3.887],[-51.782,3.964],[-51.656,4.054],[-51.623,4.226],[-51.677,4.333],[-51.638,4.509],[-51.486,4.437],[-51.283,4.25],[-51.216,4.15],[-51.176,4.011],[-51.179,3.92],[-51.081,3.885],[-51.082,3.56],[-51.109,3.451],[-51.033,3.214],[-51.044,3.134],[-50.954,2.837],[-50.887,2.746],[-50.816,2.503],[-50.768,2.407],[-50.684,2.144],[-50.598,2.064],[-50.583,1.99],[-50.424,1.805],[-50.159,1.811],[-49.921,1.688],[-49.882,1.5],[-49.904,1.296],[-49.883,1.169],[-49.89,1.014],[-49.989,0.94],[-49.988,0.875],[-50.097,0.767],[-50.22,0.743],[-50.226,0.696],[-50.329,0.674],[-50.436,0.6],[-50.553,0.313],[-50.668,0.185],[-50.785,0.112],[-50.975,0.042],[-51.069,-0.079],[-51.208,-0.117],[-51.348,-0.3],[-51.362,-0.368],[-51.458,-0.513],[-51.595,-0.65],[-51.683,-0.795],[-51.7,-1.063],[-51.778,-1.14],[-52.055,-1.177],[-52.07,-1.236],[-52.12,-1.146],[-52.333,-1.116],[-52.417,-1.026],[-52.412,-0.863],[-52.511,-0.857],[-52.497,-0.711],[-52.535,-0.574],[-52.64,-0.585],[-52.695,-0.496],[-52.684,-0.314],[-52.836,-0.186],[-52.933,-0.142],[-52.983,0.033],[-53.094,0.195],[-53.094,0.259],[-53.175,0.382],[-53.147,0.6],[-53.106,0.68],[-53.19,0.768],[-53.411,0.929],[-53.459,1.134],[-53.402,1.154],[-53.426,1.226],[-53.525,1.212],[-53.538,1.341],[-53.888,1.408],[-53.896,1.455],[-54.069,1.501],[-54.144,1.641],[-54.201,1.646],[-54.352,1.754],[-54.496,1.747],[-54.602,1.785],[-54.745,1.776],[-54.804,2.026],[-54.806,2.139],[-54.763,2.202],[-54.796,2.318],[-54.872,2.434]]],[[[-50.509,2.185],[-50.423,2.119],[-50.508,2.1],[-50.509,2.185]]],[[[-50.45,2.109],[-50.405,2.111],[-50.317,1.948],[-50.367,1.89],[-50.455,1.889],[-50.521,2.005],[-50.504,2.094],[-50.45,2.109]]]]}},
{"type":"Feature","properties":{"uf":"TO","name":"Tocantins"},"geometry":{"type":"Polygon","coordinates":[[[-48.755,-5.349],[-48.658,-5.308],[-48.606,-5.336],[-48.519,-5.192],[-48.364,-5.168],[-48.185,-5.257],[-48.069,-5.271],[-48.015,-5.238],[-47.886,-5.261],[-47.827,-5.387],[-47.744,-5.38],[-47.619,-5.46],[-47.56,-5.463],[-47.483,-5.565],[-47.493,-5.71],[-47.442,-5.831],[-47.448,-5.99],[-47.423,-6.16],[-47.379,-6.273],[-47.43,-6.423],[-47.416,-6.484],[-47.499,-6.671],[-47.529,-6.828],[-47.508,-6.907],[-47.547,-7.017],[-47.66,-7.151],[-47.745,-7.162],[-47.737,-7.217],[-47.651,-7.302],[-47.543,-7.265],[-47.478,-7.337],[-47.58,-7.419],[-47.358,-7.616],[-47.317,-7.704],[-47.181,-7.859],[-47.046,-8.053],[-46.963,-8.039],[-46.883,-7.964],[-46.605,-7.897],[-46.501,-7.973],[-46.466,-8.073],[-46.544,-8.317],[-46.633,-8.318],[-46.727,-8.383],[-46.777,-8.368],[-46.8,-8.454],[-46.902,-8.586],[-46.887,-8.686],[-46.926,-8.735],[-46.918,-8.857],[-46.993,-8.879],[-47.058,-9.053],[-46.94,-9.064],[-46.82,-9.212],[-46.819,-9.303],[-46.759,-9.381],[-46.666,-9.392],[-46.573,-9.478],[-46.539,-9.56],[-46.583,-9.586],[-46.644,-9.74],[-46.513,-9.797],[-46.473,-9.877],[-46.445,-10.077],[-46.325,-10.183],[-46.211,-10.17],[-46.163,-10.214],[-46.028,-10.177],[-46.012,-10.251],[-45.971,-10.359],[-45.911,-10.371],[-45.897,-10.264],[-45.744,-10.24],[-45.723,-10.155],[-45.699,-10.259],[-45.798,-10.323],[-45.82,-10.456],[-46.061,-10.6],[-46.128,-10.621],[-46.206,-10.798],[-46.26,-10.812],[-46.267,-10.935],[-46.342,-10.939],[-46.553,-11.265],[-46.576,-11.342],[-46.524,-11.464],[-46.439,-11.521],[-46.35,-11.506],[-46.209,-11.585],[-46.081,-11.624],[-46.155,-11.65],[-46.244,-11.605],[-46.341,-11.61],[-46.308,-11.687],[-46.374,-11.768],[-46.38,-11.867],[-46.248,-11.919],[-46.422,-12.029],[-46.371,-12.1],[-46.388,-12.249],[-46.37,-12.347],[-46.3,-12.364],[-46.266,-12.499],[-46.307,-12.637],[-46.268,-12.716],[-46.308,-12.942],[-46.113,-12.918],[-46.198,-12.957],[-46.371,-12.988],[-46.366,-12.863],[-46.418,-12.822],[-46.455,-12.971],[-46.751,-12.969],[-47.011,-13.141],[-47.225,-13.193],[-47.281,-13.265],[-47.38,-13.231],[-47.417,-13.271],[-47.565,-13.18],[-47.569,-13.117],[-47.646,-13.12],[-47.667,-13.208],[-47.624,-13.376],[-47.68,-13.468],[-47.798,-13.329],[-48.033,-13.274],[-48.156,-13.308],[-48.166,-13.189],[-48.235,-13.176],[-48.385,-13.264],[-48.462,-13.275],[-48.516,-13.139],[-48.554,-13.303],[-48.6,-13.288],[-48.576,-13.124],[-48.736,-12.921],[-48.87,-12.803],[-48.976,-12.957],[-49.118,-12.79],[-49.238,-12.884],[-49.355,-13.107],[-49.339,-13.253],[-49.368,-13.272],[-49.909,-12.975],[-50.286,-12.84],[-50.296,-12.711],[-50.193,-12.564],[-50.206,-12.445],[-50.305,-12.492],[-50.479,-12.713],[-50.511,-12.861],[-50.625,-12.8],[-50.623,-12.735],[-50.7,-12.595],[-50.624,-12.455],[-50.681,-12.217],[-50.682,-11.991],[-50.639,-11.885],[-50.686,-11.859],[-50.722,-11.74],[-50.664,-11.677],[-50.657,-11.593],[-50.739,-11.544],[-50.742,-11.46],[-50.671,-11.287],[-50.664,-11.152],[-50.609,-11.067],[-50.633,-10.932],[-50.571,-10.752],[-50.603,-10.66],[-50.483,-10.49],[-50.474,-10.405],[-50.418,-10.355],[-50.382,-10.212],[-50.398,-10.155],[-50.303,-10.035],[-50.225,-9.841],[-50.09,-9.546],[-50.105,-9.475],[-50.038,-9.289],[-49.905,-9.17],[-49.843,-9.027],[-49.684,-8.856],[-49.592,-8.839],[-49.41,-8.58],[-49.349,-8.418],[-49.283,-8.38],[-49.221,-8.204],[-49.163,-7.921],[-49.161,-7.791],[-49.342,-7.656],[-49.378,-7.496],[-49.234,-7.329],[-49.185,-7.235],[-49.209,-6.925],[-49.019,-6.784],[-48.769,-6.731],[-48.652,-6.64],[-48.664,-6.568],[-48.607,-6.448],[-48.5,-6.351],[-48.383,-6.38],[-48.432,-6.177],[-48.288,-6.098],[-48.335,-6.004],[-48.233,-5.948],[-48.292,-5.837],[-48.276,-5.726],[-48.172,-5.709],[-48.138,-5.603],[-48.279,-5.54],[-48.393,-5.394],[-48.597,-5.422],[-48.755,-5.349]]]}},
{"type":"Feature","properties":{"uf":"MA","name":"Maranhão"},"geometry":{"type":"MultiPolygon","coordinates":[[[[-48.755,-5.349],[-47.816,-4.615],[-47.68,-4.609],[-47.615,-4.56],[-47.442,-4.287],[-47.372,-4.245],[-47.319,-4.048],[-47.195,-3.986],[-47.085,-3.857],[-47.039,-3.673],[-47.038,-3.564],[-46.97,-3.512],[-46.956,-3.426],[-46.884,-3.337],[-46.815,-3.311],[-46.75,-3.124],[-46.689,-3.093],[-46.647,-2.97],[-46.673,-2.893],[-46.59,-2.846],[-46.67,-2.735],[-46.622,-2.645],[-46.507,-2.617],[-46.43,-2.537],[-46.433,-2.301],[-46.283,-2.154],[-46.211,-1.831],[-46.31,-1.806],[-46.295,-1.727],[-46.221,-1.731],[-46.155,-1.675],[-46.134,-1.582],[-46.176,-1.477],[-46.115,-1.352],[-46.162,-1.282],[-46.104,-1.202],[-45.976,-1.066],[-45.958,-1.195],[-45.871,-1.052],[-45.883,-1.149],[-45.847,-1.213],[-45.736,-1.207],[-45.69,-1.274],[-45.476,-1.325],[-45.489,-1.469],[-45.372,-1.397],[-45.338,-1.315],[-45.299,-1.433],[-45.343,-1.587],[-45.268,-1.599],[-45.196,-1.488],[-45.103,-1.473],[-44.974,-1.5],[-44.885,-1.419],[-44.83,-1.428],[-44.916,-1.547],[-44.854,-1.617],[-44.705,-1.554],[-44.636,-1.617],[-44.777,-1.68],[-44.7,-1.731],[-44.752,-1.789],[-44.647,-1.759],[-44.652,-1.715],[-44.513,-1.889],[-44.482,-1.988],[-44.566,-2.022],[-44.498,-2.049],[-44.589,-2.137],[-44.644,-2.296],[-44.53,-2.16],[-44.462,-2.146],[-44.398,-2.215],[-44.358,-2.337],[-44.388,-2.409],[-44.537,-2.545],[-44.627,-2.703],[-44.633,-2.846],[-44.68,-2.919],[-44.662,-3.013],[-44.548,-3.045],[-44.425,-2.944],[-44.41,-2.799],[-44.354,-2.603],[-44.378,-2.566],[-44.305,-2.487],[-44.095,-2.407],[-44.032,-2.406],[-44.034,-2.55],[-44.08,-2.564],[-44.138,-2.682],[-44.251,-2.732],[-44.257,-2.778],[-44.079,-2.744],[-43.931,-2.562],[-43.85,-2.51],[-43.838,-2.417],[-43.727,-2.386],[-43.72,-2.291],[-43.627,-2.251],[-43.645,-2.401],[-43.741,-2.435],[-43.748,-2.494],[-43.624,-2.51],[-43.537,-2.422],[-43.462,-2.486],[-43.483,-2.385],[-43.405,-2.335],[-43.237,-2.359],[-42.829,-2.543],[-42.696,-2.574],[-42.587,-2.669],[-42.365,-2.715],[-42.264,-2.758],[-42.255,-2.676],[-42.071,-2.687],[-42.043,-2.73],[-41.807,-2.73],[-41.826,-2.757],[-41.866,-2.87],[-41.797,-2.961],[-42.013,-3.248],[-42.124,-3.267],[-42.151,-3.387],[-42.302,-3.452],[-42.334,-3.434],[-42.47,-3.484],[-42.496,-3.446],[-42.563,-3.559],[-42.675,-3.673],[-42.684,-3.803],[-42.739,-3.927],[-42.845,-4.037],[-42.89,-4.155],[-42.986,-4.22],[-42.949,-4.385],[-42.897,-4.402],[-42.85,-4.498],[-42.953,-4.687],[-42.95,-4.769],[-42.897,-4.843],[-42.799,-5.19],[-42.825,-5.346],[-42.911,-5.396],[-43.033,-5.592],[-43.095,-5.615],[-43.049,-6.102],[-42.854,-6.25],[-42.829,-6.341],[-42.877,-6.417],[-42.887,-6.578],[-42.993,-6.749],[-43.148,-6.784],[-43.248,-6.768],[-43.455,-6.846],[-43.637,-6.72],[-43.791,-6.702],[-43.93,-6.771],[-43.957,-6.743],[-44.116,-6.806],[-44.313,-7.119],[-44.386,-7.121],[-44.565,-7.229],[-44.69,-7.396],[-44.817,-7.361],[-44.923,-7.467],[-45.05,-7.513],[-45.155,-7.513],[-45.215,-7.567],[-45.335,-7.578],[-45.456,-7.67],[-45.577,-8.03],[-45.584,-8.157],[-45.664,-8.25],[-45.739,-8.501],[-45.841,-8.716],[-45.96,-8.815],[-45.995,-8.927],[-45.936,-9.038],[-45.898,-9.185],[-45.908,-9.298],[-45.799,-9.417],[-45.842,-9.563],[-45.821,-9.773],[-45.864,-9.861],[-45.842,-9.939],[-45.878,-10.11],[-45.974,-10.248],[-46.012,-10.251],[-46.028,-10.177],[-46.163,-10.214],[-46.211,-10.17],[-46.325,-10.183],[-46.445,-10.077],[-46.473,-9.877],[-46.513,-9.797],[-46.644,-9.74],[-46.583,-9.586],[-46.539,-9.56],[-46.573,-9.478],[-46.666,-9.392],[-46.759,-9.381],[-46.819,-9.303],[-46.82,-9.212],[-46.94,-9.064],[-47.058,-9.053],[-46.993,-8.879],[-46.918,-8.857],[-46.926,-8.735],[-46.887,-8.686],[-46.902,-8.586],[-46.8,-8.454],[-46.777,-8.368],[-46.727,-8.383],[-46.633,-8.318],[-46.544,-8.317],[-46.466,-8.073],[-46.501,-7.973],[-46.605,-7.897],[-46.883,-7.964],[-46.963,-8.039],[-47.046,-8.053],[-47.181,-7.859],[-47.317,-7.704],[-47.358,-7.616],[-47.58,-7.419],[-47.478,-7.337],[-47.543,-7.265],[-47.651,-7.302],[-47.737,-7.217],[-47.745,-7.162],[-47.66,-7.151],[-47.547,-7.017],[-47.508,-6.907],[-47.529,-6.828],[-47.499,-6.671],[-47.416,-6.484],[-47.43,-6.423],[-47.379,-6.273],[-47.423,-6.16],[-47.448,-5.99],[-47.442,-5.831],[-47.493,-5.71],[-47.483,-5.565],[-47.56,-5.463],[-47.619,-5.46],[-47.744,-5.38],[-47.827,-5.387],[-47.886,-5.261],[-48.015,-5.238],[-48.069,-5.271],[-48.185,-5.257],[-48.364,-5.168],[-48.519,-5.192],[-48.606,-5.336],[-48.658,-5.308],[-48.755,-5.349]]],[[[-44.481,-2.727],[-44.479,-2.958],[-44.561,-3.022],[-44.631,-2.988],[-44.586,-2.815],[-44.481,-2.727]]],[[[-45.536,-1.228],[-45.536,-1.228],[-45.536,-1.228],[-45.536,-1.228]]],[[[-44.966,-1.271],[-44.867,-1.329],[-45.005,-1.401],[-45.029,-1.318],[-44.966,-1.271]]],[[[-44.752,-1.468],[-44.752,-1.468],[-44.752,-1.468],[-44.752,-1.468]]],[[[-45.691,-1.265],[-45.691,-1.265],[-45.691,-1.265],[-45.691,-1.265]]],[[[-43.542,-2.361],[-43.562,-2.424],[-43.613,-2.378],[-43.542,-2.361]]]]}},
{"type":"Feature","properties":{"uf":"PI","name":"Piauí"},"geometry":{"type":"Polygon","coordinates":[[[-40.524,-7.318],[-40.548,-7.393],[-40.715,-7.481],[-40.622,-7.658],[-40.674,-7.762],[-40.555,-7.818],[-40.544,-7.962],[-40.604,-8.104],[-40.711,-8.225],[-40.784,-8.262],[-40.819,-8.361],[-40.978,-8.399],[-41.213,-8.644],[-41.358,-8.708],[-41.488,-8.844],[-41.546,-8.962],[-41.606,-8.957],[-41.731,-9.028],[-41.838,-9.242],[-41.922,-9.279],[-41.972,-9.249],[-42.316,-9.317],[-42.493,-9.495],[-42.59,-9.498],[-42.716,-9.554],[-42.77,-9.619],[-42.828,-9.56],[-42.944,-9.521],[-42.959,-9.428],[-43.122,-9.373],[-43.194,-9.421],[-43.285,-9.42],[-43.438,-9.266],[-43.579,-9.32],[-43.689,-9.42],[-43.782,-9.453],[-43.853,-9.562],[-43.785,-9.762],[-43.652,-9.844],[-43.709,-9.913],[-43.665,-9.991],[-43.699,-10.078],[-43.759,-10.075],[-43.837,-10.302],[-43.937,-10.436],[-44.028,-10.412],[-44.072,-10.58],[-44.139,-10.64],[-44.267,-10.623],[-44.344,-10.55],[-44.5,-10.65],[-44.578,-10.627],[-44.669,-10.687],[-44.667,-10.759],[-44.788,-10.808],[-44.808,-10.866],[-44.931,-10.929],[-45.082,-10.839],[-45.246,-10.822],[-45.358,-10.732],[-45.437,-10.616],[-45.447,-10.509],[-45.396,-10.445],[-45.43,-10.359],[-45.522,-10.277],[-45.603,-10.108],[-45.723,-10.155],[-45.744,-10.24],[-45.897,-10.264],[-45.911,-10.371],[-45.971,-10.359],[-46.012,-10.251],[-45.974,-10.248],[-45.878,-10.11],[-45.842,-9.939],[-45.864,-9.861],[-45.821,-9.773],[-45.842,-9.563],[-45.799,-9.417],[-45.908,-9.298],[-45.898,-9.185],[-45.936,-9.038],[-45.995,-8.927],[-45.96,-8.815],[-45.841,-8.716],[-45.739,-8.501],[-45.664,-8.25],[-45.584,-8.157],[-45.577,-8.03],[-45.456,-7.67],[-45.335,-7.578],[-45.215,-7.567],[-45.155,-7.513],[-45.05,-7.513],[-44.923,-7.467],[-44.817,-7.361],[-44.69,-7.396],[-44.565,-7.229],[-44.386,-7.121],[-44.313,-7.119],[-44.116,-6.806],[-43.957,-6.743],[-43.93,-6.771],[-43.791,-6.702],[-43.637,-6.72],[-43.455,-6.846],[-43.248,-6.768],[-43.148,-6.784],[-42.993,-6.749],[-42.887,-6.578],[-42.877,-6.417],[-42.829,-6.341],[-42.854,-6.25],[-43.049,-6.102],[-43.095,-5.615],[-43.033,-5.592],[-42.911,-5.396],[-42.825,-5.346],[-42.799,-5.19],[-42.897,-4.843],[-42.95,-4.769],[-42.953,-4.687],[-42.85,-4.498],[-42.897,-4.402],[-42.949,-4.385],[-42.986,-4.22],[-42.89,-4.155],[-42.845,-4.037],[-42.739,-3.927],[-42.684,-3.803],[-42.675,-3.673],[-42.563,-3.559],[-42.496,-3.446],[-42.47,-3.484],[-42.334,-3.434],[-42.302,-3.452],[-42.151,-3.387],[-42.124,-3.267],[-42.013,-3.248],[-41.797,-2.961],[-41.866,-2.87],[-41.826,-2.757],[-41.612,-2.896],[-41.323,-2.921],[-41.271,-2.971],[-41.256,-3.088],[-41.414,-3.35],[-41.324,-3.386],[-41.303,-3.492],[-41.367,-3.562],[-41.334,-3.684],[-41.239,-3.713],[-41.288,-3.822],[-41.22,-3.941],[-41.239,-4.017],[-41.113,-4.05],[-41.139,-4.121],[-41.098,-4.18],[-41.136,-4.233],[-41.149,-4.367],[-41.233,-4.61],[-41.181,-4.673],[-41.25,-4.757],[-41.213,-4.772],[-41.25,-4.87],[-41.082,-5.088],[-40.929,-5.172],[-40.911,-5.407],[-40.932,-5.549],[-40.902,-5.608],[-40.939,-5.673],[-40.874,-5.973],[-40.906,-6.046],[-40.858,-6.105],[-40.852,-6.224],[-40.787,-6.305],[-40.788,-6.524],[-40.71,-6.676],[-40.477,-6.733],[-40.432,-6.813],[-40.428,-7.034],[-40.49,-7.119],[-40.524,-7.318]]]}},
{"type":"Feature","properties":{"uf":"CE","name":"Ceará"},"geometry":{"type":"Polygon","coordinates":[[[-41.323,-2.921],[-41.271,-2.887],[-41.102,-2.901],[-40.76,-2.849],[-40.59,-2.846],[-40.498,-2.784],[-40.455,-2.803],[-40.188,-2.812],[-39.966,-2.851],[-39.721,-2.997],[-39.62,-3.026],[-39.379,-3.183],[-39.257,-3.219],[-39.065,-3.407],[-38.974,-3.411],[-38.918,-3.494],[-38.807,-3.548],[-38.652,-3.682],[-38.463,-3.713],[-38.36,-3.885],[-38.273,-3.945],[-38.115,-4.149],[-37.907,-4.34],[-37.77,-4.401],[-37.732,-4.488],[-37.603,-4.617],[-37.495,-4.629],[-37.295,-4.73],[-37.253,-4.831],[-37.64,-4.926],[-37.677,-5.052],[-37.725,-5.071],[-37.788,-5.219],[-37.787,-5.297],[-37.847,-5.34],[-37.902,-5.501],[-37.99,-5.556],[-38.083,-5.672],[-38.047,-5.733],[-38.163,-5.939],[-38.306,-6.087],[-38.433,-6.078],[-38.582,-6.319],[-38.562,-6.356],[-38.538,-6.421],[-38.612,-6.513],[-38.672,-6.706],[-38.614,-6.782],[-38.675,-6.862],[-38.765,-6.911],[-38.765,-6.994],[-38.656,-7.092],[-38.644,-7.184],[-38.535,-7.29],[-38.653,-7.553],[-38.715,-7.622],[-38.94,-7.759],[-38.962,-7.844],[-39.088,-7.833],[-39.147,-7.718],[-39.253,-7.705],[-39.473,-7.573],[-39.461,-7.471],[-39.546,-7.484],[-39.572,-7.43],[-39.741,-7.327],[-39.858,-7.325],[-40.001,-7.374],[-40.128,-7.382],[-40.263,-7.301],[-40.361,-7.356],[-40.449,-7.361],[-40.524,-7.318],[-40.49,-7.119],[-40.428,-7.034],[-40.432,-6.813],[-40.477,-6.733],[-40.71,-6.676],[-40.788,-6.524],[-40.787,-6.305],[-40.852,-6.224],[-40.858,-6.105],[-40.906,-6.046],[-40.874,-5.973],[-40.939,-5.673],[-40.902,-5.608],[-40.932,-5.549],[-40.911,-5.407],[-40.929,-5.172],[-41.082,-5.088],[-41.25,-4.87],[-41.213,-4.772],[-41.25,-4.757],[-41.181,-4.673],[-41.233,-4.61],[-41.149,-4.367],[-41.136,-4.233],[-41.098,-4.18],[-41.139,-4.121],[-41.113,-4.05],[-41.239,-4.017],[-41.22,-3.941],[-41.288,-3.822],[-41.239,-3.713],[-41.334,-3.684],[-41.367,-3.562],[-41.303,-3.492],[-41.324,-3.386],[-41.414,-3.35],[-41.256,-3.088],[-41.271,-2.971],[-41.323,-2.921]]]}},
{"type":"Feature","properties":{"uf":"RN","name":"Rio Grande do Norte"},"geometry":{"type":"Polygon","coordinates":[[[-34.968,-6.487],[-35.146,-6.553],[-35.224,-6.522],[-35.341,-6.539],[-35.408,-6.49],[-35.565,-6.492],[-35.664,-6.447],[-35.773,-6.483],[-36.005,-6.481],[-36.077,-6.406],[-36.226,-6.434],[-36.292,-6.396],[-36.295,-6.292],[-36.395,-6.294],[-36.433,-6.363],[-36.5,-6.358],[-36.526,-6.501],[-36.442,-6.565],[-36.438,-6.629],[-36.514,-6.594],[-36.559,-6.708],[-36.505,-6.754],[-36.604,-6.93],[-36.766,-6.936],[-36.73,-6.836],[-36.835,-6.731],[-36.959,-6.783],[-37.004,-6.71],[-37.193,-6.826],[-37.255,-6.811],[-37.314,-6.689],[-37.485,-6.71],[-37.465,-6.533],[-37.396,-6.51],[-37.363,-6.322],[-37.273,-6.28],[-37.157,-6.152],[-37.174,-6.048],[-37.256,-6.028],[-37.446,-6.112],[-37.459,-6.145],[-37.742,-6.189],[-37.859,-6.374],[-37.942,-6.424],[-38.145,-6.494],[-38.289,-6.506],[-38.402,-6.41],[-38.562,-6.356],[-38.582,-6.319],[-38.433,-6.078],[-38.306,-6.087],[-38.163,-5.939],[-38.047,-5.733],[-38.083,-5.672],[-37.99,-5.556],[-37.902,-5.501],[-37.847,-5.34],[-37.787,-5.297],[-37.788,-5.219],[-37.725,-5.071],[-37.677,-5.052],[-37.64,-4.926],[-37.253,-4.831],[-37.158,-4.945],[-37.037,-4.95],[-36.96,-4.919],[-36.878,-4.951],[-36.716,-5.081],[-36.542,-5.088],[-36.508,-5.062],[-36.16,-5.096],[-35.981,-5.042],[-35.791,-5.077],[-35.489,-5.157],[-35.371,-5.285],[-35.355,-5.355],[-35.261,-5.481],[-35.153,-5.947],[-35.096,-6.057],[-35.094,-6.183],[-35.036,-6.235],[-35.02,-6.366],[-34.968,-6.487]]]}},
{"type":"Feature","properties":{"uf":"PB","name":"Paraíba"},"geometry":{"type":"Polygon","coordinates":[[[-34.834,-7.549],[-34.961,-7.539],[-34.985,-7.462],[-35.07,-7.399],[-35.249,-7.375],[-35.495,-7.484],[-35.527,-7.645],[-36.003,-7.813],[-36.217,-7.764],[-36.43,-7.827],[-36.48,-7.925],[-36.572,-7.904],[-36.612,-7.949],[-36.629,-8.111],[-36.687,-8.156],[-36.862,-8.222],[-36.991,-8.303],[-37.082,-8.262],[-37.16,-8.17],[-37.16,-7.997],[-37.34,-7.98],[-37.139,-7.745],[-37.198,-7.635],[-37.118,-7.534],[-36.985,-7.476],[-37.014,-7.404],[-37.168,-7.332],[-37.234,-7.274],[-37.328,-7.288],[-37.386,-7.357],[-37.496,-7.365],[-37.528,-7.465],[-37.656,-7.523],[-37.746,-7.609],[-37.857,-7.652],[-37.958,-7.766],[-38.04,-7.748],[-38.077,-7.831],[-38.164,-7.78],[-38.275,-7.834],[-38.327,-7.694],[-38.409,-7.73],[-38.594,-7.754],[-38.715,-7.622],[-38.653,-7.553],[-38.535,-7.29],[-38.644,-7.184],[-38.656,-7.092],[-38.765,-6.994],[-38.765,-6.911],[-38.675,-6.862],[-38.614,-6.782],[-38.672,-6.706],[-38.612,-6.513],[-38.538,-6.421],[-38.562,-6.356],[-38.402,-6.41],[-38.289,-6.506],[-38.145,-6.494],[-37.942,-6.424],[-37.859,-6.374],[-37.742,-6.189],[-37.459,-6.145],[-37.446,-6.112],[-37.256,-6.028],[-37.174,-6.048],[-37.157,-6.152],[-37.273,-6.28],[-37.363,-6.322],[-37.396,-6.51],[-37.465,-6.533],[-37.485,-6.71],[-37.314,-6.689],[-37.255,-6.811],[-37.193,-6.826],[-37.004,-6.71],[-36.959,-6.783],[-36.835,-6.731],[-36.73,-6.836],[-36.766,-6.936],[-36.604,-6.93],[-36.505,-6.754],[-36.559,-6.708],[-36.514,-6.594],[-36.438,-6.629],[-36.442,-6.565],[-36.526,-6.501],[-36.5,-6.358],[-36.433,-6.363],[-36.395,-6.294],[-36.295,-6.292],[-36.292,-6.396],[-36.226,-6.434],[-36.077,-6.406],[-36.005,-6.481],[-35.773,-6.483],[-35.664,-6.447],[-35.565,-6.492],[-35.408,-6.49],[-35.341,-6.539],[-35.224,-6.522],[-35.146,-6.553],[-34.968,-6.487],[-34.953,-6.673],[-34.869,-6.978],[-34.793,-7.155],[-34.794,-7.333],[-34.834,-7.549]]]}},
{"type":"Feature","properties":{"uf":"PE","name":"Pernambuco"},"geometry":{"type":"MultiPolygon","coordinates":[[[[-41.358,-8.708],[-41.213,-8.644],[-40.978,-8.399],[-40.819,-8.361],[-40.784,-8.262],[-40.711,-8.225],[-40.604,-8.104],[-40.544,-7.962],[-40.555,-7.818],[-40.674,-7.762],[-40.622,-7.658],[-40.715,-7.481],[-40.548,-7.393],[-40.524,-7.318],[-40.449,-7.361],[-40.361,-7.356],[-40.263,-7.301],[-40.128,-7.382],[-40.001,-7.374],[-39.858,-7.325],[-39.741,-7.327],[-39.572,-7.43],[-39.546,-7.484],[-39.461,-7.471],[-39.473,-7.573],[-39.253,-7.705],[-39.147,-7.718],[-39.088,-7.833],[-38.962,-7.844],[-38.94,-7.759],[-38.715,-7.622],[-38.594,-7.754],[-38.409,-7.73],[-38.327,-7.694],[-38.275,-7.834],[-38.164,-7.78],[-38.077,-7.831],[-38.04,-7.748],[-37.958,-7.766],[-37.857,-7.652],[-37.746,-7.609],[-37.656,-7.523],[-37.528,-7.465],[-37.496,-7.365],[-37.386,-7.357],[-37.328,-7.288],[-37.234,-7.274],[-37.168,-7.332],[-37.014,-7.404],[-36.985,-7.476],[-37.118,-7.534],[-37.198,-7.635],[-37.139,-7.745],[-37.34,-7.98],[-37.16,-7.997],[-37.16,-8.17],[-37.082,-8.262],[-36.991,-8.303],[-36.862,-8.222],[-36.687,-8.156],[-36.629,-8.111],[-36.612,-7.949],[-36.572,-7.904],[-36.48,-7.925],[-36.43,-7.827],[-36.217,-7.764],[-36.003,-7.813],[-35.527,-7.645],[-35.495,-7.484],[-35.249,-7.375],[-35.07,-7.399],[-34.985,-7.462],[-34.961,-7.539],[-34.834,-7.549],[-34.809,-7.63],[-34.845,-7.816],[-34.828,-7.959],[-34.909,-8.155],[-34.961,-8.396],[-35.088,-8.691],[-35.086,-8.747],[-35.153,-8.914],[-35.409,-8.838],[-35.54,-8.821],[-35.748,-8.917],[-35.795,-8.848],[-35.911,-8.861],[-36.128,-8.958],[-36.121,-9.028],[-36.267,-9.102],[-36.265,-9.166],[-36.356,-9.218],[-36.432,-9.212],[-36.625,-9.332],[-36.762,-9.271],[-36.914,-9.296],[-36.937,-9.377],[-37.003,-9.353],[-37.091,-9.246],[-37.229,-9.227],[-37.247,-9.179],[-37.416,-9.007],[-37.525,-8.963],[-37.658,-8.993],[-37.755,-8.846],[-37.826,-8.889],[-37.853,-9],[-37.979,-9.148],[-38.092,-9.173],[-38.238,-9.33],[-38.326,-9.081],[-38.323,-8.99],[-38.403,-9.037],[-38.503,-8.981],[-38.47,-8.866],[-38.57,-8.83],[-38.635,-8.987],[-38.706,-8.862],[-38.807,-8.788],[-38.952,-8.804],[-39.033,-8.736],[-39.234,-8.705],[-39.286,-8.564],[-39.38,-8.533],[-39.614,-8.657],[-39.689,-8.661],[-39.673,-8.785],[-39.893,-8.829],[-39.874,-8.937],[-39.955,-9.046],[-40.066,-9.063],[-40.13,-9.11],[-40.239,-9.054],[-40.273,-9.082],[-40.309,-9.275],[-40.356,-9.377],[-40.418,-9.352],[-40.623,-9.483],[-40.767,-9.445],[-40.67,-9.186],[-40.821,-9.08],[-40.851,-8.954],[-40.921,-8.835],[-41.021,-8.844],[-41.103,-8.78],[-41.131,-8.704],[-41.278,-8.735],[-41.358,-8.708]]],[[[-32.431,-3.845],[-32.431,-3.845],[-32.431,-3.845],[-32.431,-3.845]]]]}},
{"type":"Feature","properties":{"uf":"AL","name":"Alagoas"},"geometry":{"type":"Polygon","coordinates":[[[-38.238,-9.33],[-38.092,-9.173],[-37.979,-9.148],[-37.853,-9],[-37.826,-8.889],[-37.755,-8.846],[-37.658,-8.993],[-37.525,-8.963],[-37.416,-9.007],[-37.247,-9.179],[-37.229,-9.227],[-37.091,-9.246],[-37.003,-9.353],[-36.937,-9.377],[-36.914,-9.296],[-36.762,-9.271],[-36.625,-9.332],[-36.432,-9.212],[-36.356,-9.218],[-36.265,-9.166],[-36.267,-9.102],[-36.121,-9.028],[-36.128,-8.958],[-35.911,-8.861],[-35.795,-8.848],[-35.748,-8.917],[-35.54,-8.821],[-35.409,-8.838],[-35.153,-8.914],[-35.295,-9.171],[-35.396,-9.301],[-35.472,-9.358],[-35.708,-9.665],[-35.814,-9.731],[-36.045,-10.074],[-36.26,-10.264],[-36.396,-10.497],[-36.463,-10.408],[-36.562,-10.416],[-36.572,-10.316],[-36.632,-10.252],[-36.72,-10.265],[-36.918,-10.125],[-36.962,-9.996],[-37.065,-9.981],[-37.162,-9.894],[-37.245,-9.892],[-37.347,-9.791],[-37.572,-9.739],[-37.71,-9.63],[-37.786,-9.639],[-37.894,-9.539],[-38.003,-9.515],[-38.078,-9.441],[-38.157,-9.44],[-38.238,-9.33]]]}},
{"type":"Feature","properties":{"uf":"SE","name":"Sergipe"},"geometry":{"type":"Polygon","coordinates":[[[-38.003,-9.515],[-37.894,-9.539],[-37.786,-9.639],[-37.71,-9.63],[-37.572,-9.739],[-37.347,-9.791],[-37.245,-9.892],[-37.162,-9.894],[-37.065,-9.981],[-36.962,-9.996],[-36.918,-10.125],[-36.72,-10.265],[-36.632,-10.252],[-36.572,-10.316],[-36.562,-10.416],[-36.463,-10.408],[-36.396,-10.497],[-36.613,-10.588],[-36.784,-10.688],[-36.953,-10.851],[-37.26,-11.29],[-37.341,-11.442],[-37.52,-11.549],[-37.632,-11.518],[-37.682,-11.562],[-37.8,-11.521],[-37.87,-11.435],[-37.936,-11.422],[-37.994,-11.343],[-37.981,-11.199],[-38.047,-11.182],[-38.102,-11.017],[-38.169,-10.99],[-38.236,-10.882],[-38.205,-10.711],[-38.042,-10.701],[-37.972,-10.757],[-37.804,-10.651],[-37.839,-10.381],[-37.743,-10.338],[-37.747,-10.238],[-37.802,-10.113],[-37.783,-10.044],[-37.909,-9.94],[-38.003,-9.905],[-38.001,-9.816],[-38.061,-9.588],[-38.003,-9.515]]]}},
{"type":"Feature","properties":{"uf":"BA","name":"Bahia"},"geometry":{"type":"Polygon","coordinates":[[[-41.358,-8.708],[-41.278,-8.735],[-41.131,-8.704],[-41.103,-8.78],[-41.021,-8.844],[-40.921,-8.835],[-40.851,-8.954],[-40.821,-9.08],[-40.67,-9.186],[-40.767,-9.445],[-40.623,-9.483],[-40.418,-9.352],[-40.356,-9.377],[-40.309,-9.275],[-40.273,-9.082],[-40.239,-9.054],[-40.13,-9.11],[-40.066,-9.063],[-39.955,-9.046],[-39.874,-8.937],[-39.893,-8.829],[-39.673,-8.785],[-39.689,-8.661],[-39.614,-8.657],[-39.38,-8.533],[-39.286,-8.564],[-39.234,-8.705],[-39.033,-8.736],[-38.952,-8.804],[-38.807,-8.788],[-38.706,-8.862],[-38.635,-8.987],[-38.57,-8.83],[-38.47,-8.866],[-38.503,-8.981],[-38.403,-9.037],[-38.323,-8.99],[-38.326,-9.081],[-38.238,-9.33],[-38.157,-9.44],[-38.078,-9.441],[-38.003,-9.515],[-38.061,-9.588],[-38.001,-9.816],[-38.003,-9.905],[-37.909,-9.94],[-37.783,-10.044],[-37.802,-10.113],[-37.747,-10.238],[-37.743,-10.338],[-37.839,-10.381],[-37.804,-10.651],[-37.972,-10.757],[-38.042,-10.701],[-38.205,-10.711],[-38.236,-10.882],[-38.169,-10.99],[-38.102,-11.017],[-38.047,-11.182],[-37.981,-11.199],[-37.994,-11.343],[-37.936,-11.422],[-37.87,-11.435],[-37.8,-11.521],[-37.682,-11.562],[-37.632,-11.518],[-37.52,-11.549],[-37.341,-11.442],[-37.513,-11.741],[-37.61,-11.956],[-37.77,-12.239],[-38.001,-12.578],[-38.244,-12.852],[-38.353,-12.957],[-38.469,-13.015],[-38.643,-13.015],[-38.762,-13.119],[-38.919,-13.214],[-38.967,-13.321],[-38.892,-13.461],[-38.933,-13.546],[-38.898,-13.666],[-38.968,-13.672],[-39,-13.776],[-38.929,-13.907],[-39.001,-14.346],[-39.062,-14.625],[-39.062,-14.747],[-39.024,-14.805],[-38.998,-14.987],[-38.991,-15.288],[-38.952,-15.469],[-38.935,-15.665],[-38.853,-15.849],[-39.011,-16.246],[-39.009,-16.346],[-39.062,-16.436],[-39.104,-16.698],[-39.14,-16.753],[-39.117,-16.892],[-39.212,-17.161],[-39.218,-17.335],[-39.184,-17.615],[-39.137,-17.685],[-39.268,-17.863],[-39.407,-17.922],[-39.491,-17.998],[-39.635,-18.232],[-39.668,-18.337],[-40.222,-17.98],[-40.263,-17.922],[-40.174,-17.852],[-40.224,-17.734],[-40.273,-17.727],[-40.344,-17.616],[-40.418,-17.599],[-40.519,-17.447],[-40.597,-17.421],[-40.595,-17.324],[-40.548,-17.284],[-40.579,-17.15],[-40.543,-16.983],[-40.48,-16.877],[-40.282,-16.901],[-40.251,-16.831],[-40.324,-16.801],[-40.275,-16.573],[-40.173,-16.577],[-40.11,-16.449],[-40.066,-16.457],[-39.99,-16.312],[-39.918,-16.284],[-39.857,-16.114],[-39.915,-16],[-40.004,-16.002],[-40.075,-15.92],[-40.16,-15.908],[-40.236,-15.803],[-40.425,-15.806],[-40.45,-15.762],[-40.561,-15.804],[-40.701,-15.667],[-40.817,-15.648],[-40.903,-15.692],[-40.963,-15.648],[-41.006,-15.714],[-41.142,-15.772],[-41.215,-15.737],[-41.33,-15.743],[-41.356,-15.5],[-41.802,-15.1],[-41.953,-15.176],[-42.096,-15.182],[-42.155,-15.098],[-42.266,-15.125],[-42.443,-15.061],[-42.586,-14.932],[-42.649,-14.93],[-42.795,-14.837],[-42.953,-14.708],[-43.175,-14.651],[-43.424,-14.72],[-43.531,-14.815],[-43.615,-14.76],[-43.847,-14.672],[-43.881,-14.562],[-43.783,-14.339],[-44.107,-14.259],[-44.341,-14.249],[-44.488,-14.329],[-44.566,-14.341],[-44.811,-14.503],[-44.869,-14.593],[-45.048,-14.69],[-45.096,-14.753],[-45.166,-14.735],[-45.49,-14.961],[-45.536,-14.938],[-45.74,-15.12],[-45.872,-15.159],[-45.961,-15.144],[-46.058,-15.263],[-46.116,-15.205],[-46.048,-15.164],[-45.975,-15.037],[-45.966,-14.966],[-46.039,-14.875],[-46.003,-14.796],[-45.981,-14.532],[-46.019,-14.472],[-45.907,-14.355],[-46.061,-14.195],[-46.187,-14.153],[-46.221,-14.107],[-46.22,-13.975],[-46.264,-13.947],[-46.232,-13.849],[-46.277,-13.791],[-46.223,-13.765],[-46.256,-13.684],[-46.163,-13.604],[-46.232,-13.583],[-46.232,-13.419],[-46.135,-13.375],[-46.068,-13.295],[-46.103,-13.257],[-46.292,-13.317],[-46.3,-13.128],[-46.275,-13.02],[-46.125,-12.96],[-46.113,-12.918],[-46.308,-12.942],[-46.268,-12.716],[-46.307,-12.637],[-46.266,-12.499],[-46.3,-12.364],[-46.37,-12.347],[-46.388,-12.249],[-46.371,-12.1],[-46.422,-12.029],[-46.248,-11.919],[-46.38,-11.867],[-46.374,-11.768],[-46.308,-11.687],[-46.341,-11.61],[-46.244,-11.605],[-46.155,-11.65],[-46.081,-11.624],[-46.209,-11.585],[-46.35,-11.506],[-46.439,-11.521],[-46.524,-11.464],[-46.576,-11.342],[-46.553,-11.265],[-46.342,-10.939],[-46.267,-10.935],[-46.26,-10.812],[-46.206,-10.798],[-46.128,-10.621],[-46.061,-10.6],[-45.82,-10.456],[-45.798,-10.323],[-45.699,-10.259],[-45.723,-10.155],[-45.603,-10.108],[-45.522,-10.277],[-45.43,-10.359],[-45.396,-10.445],[-45.447,-10.509],[-45.437,-10.616],[-45.358,-10.732],[-45.246,-10.822],[-45.082,-10.839],[-44.931,-10.929],[-44.808,-10.866],[-44.788,-10.808],[-44.667,-10.759],[-44.669,-10.687],[-44.578,-10.627],[-44.5,-10.65],[-44.344,-10.55],[-44.267,-10.623],[-44.139,-10.64],[-44.072,-10.58],[-44.028,-10.412],[-43.937,-10.436],[-43.837,-10.302],[-43.759,-10.075],[-43.699,-10.078],[-43.665,-9.991],[-43.709,-9.913],[-43.652,-9.844],[-43.785,-9.762],[-43.853,-9.562],[-43.782,-9.453],[-43.689,-9.42],[-43.579,-9.32],[-43.438,-9.266],[-43.285,-9.42],[-43.194,-9.421],[-43.122,-9.373],[-42.959,-9.428],[-42.944,-9.521],[-42.828,-9.56],[-42.77,-9.619],[-42.716,-9.554],[-42.59,-9.498],[-42.493,-9.495],[-42.316,-9.317],[-41.972,-9.249],[-41.922,-9.279],[-41.838,-9.242],[-41.731,-9.028],[-41.606,-8.957],[-41.546,-8.962],[-41.488,-8.844],[-41.358,-8.708]]]}},
{"type":"Feature","properties":{"uf":"MG","name":"Minas Gerais"},"geometry":{"type":"Polygon","coordinates":[[[-50.935,-19.467],[-50.849,-19.498],[-50.875,-19.423],[-50.817,-19.289],[-50.674,-19.136],[-50.586,-19.139],[-50.495,-19.013],[-50.512,-18.952],[-50.37,-18.804],[-50.314,-18.701],[-50.164,-18.664],[-50.08,-18.672],[-50.029,-18.601],[-49.795,-18.644],[-49.5,-18.491],[-49.406,-18.645],[-49.293,-18.564],[-49.126,-18.384],[-49.079,-18.417],[-48.918,-18.306],[-48.832,-18.346],[-48.561,-18.324],[-48.469,-18.371],[-48.318,-18.367],[-48.272,-18.329],[-48.094,-18.431],[-48.047,-18.418],[-47.955,-18.5],[-47.83,-18.411],[-47.769,-18.418],[-47.61,-18.316],[-47.567,-18.211],[-47.43,-18.165],[-47.283,-18.041],[-47.357,-17.894],[-47.355,-17.815],[-47.265,-17.611],[-47.325,-17.524],[-47.467,-17.534],[-47.537,-17.457],[-47.511,-17.326],[-47.438,-17.318],[-47.348,-17.176],[-47.147,-17.032],[-47.129,-16.975],[-47.208,-16.875],[-47.252,-16.664],[-47.431,-16.549],[-47.459,-16.504],[-47.427,-16.399],[-47.322,-16.231],[-47.352,-16.134],[-47.308,-16.05],[-47.31,-16.036],[-47.226,-16.016],[-47.137,-15.927],[-47.107,-15.958],[-46.825,-15.886],[-46.813,-15.787],[-46.855,-15.618],[-46.946,-15.563],[-46.93,-15.443],[-46.836,-15.326],[-46.937,-15.205],[-46.888,-15.112],[-46.925,-15.057],[-46.857,-15.01],[-46.625,-15.089],[-46.503,-15.051],[-46.531,-15.005],[-46.522,-14.851],[-46.564,-14.783],[-46.475,-14.705],[-46.322,-14.815],[-46.319,-14.9],[-46.172,-14.947],[-46.088,-14.936],[-46.039,-14.875],[-45.966,-14.966],[-45.975,-15.037],[-46.048,-15.164],[-46.116,-15.205],[-46.058,-15.263],[-45.961,-15.144],[-45.872,-15.159],[-45.74,-15.12],[-45.536,-14.938],[-45.49,-14.961],[-45.166,-14.735],[-45.096,-14.753],[-45.048,-14.69],[-44.869,-14.593],[-44.811,-14.503],[-44.566,-14.341],[-44.488,-14.329],[-44.341,-14.249],[-44.107,-14.259],[-43.783,-14.339],[-43.881,-14.562],[-43.847,-14.672],[-43.615,-14.76],[-43.531,-14.815],[-43.424,-14.72],[-43.175,-14.651],[-42.953,-14.708],[-42.795,-14.837],[-42.649,-14.93],[-42.586,-14.932],[-42.443,-15.061],[-42.266,-15.125],[-42.155,-15.098],[-42.096,-15.182],[-41.953,-15.176],[-41.802,-15.1],[-41.356,-15.5],[-41.33,-15.743],[-41.215,-15.737],[-41.142,-15.772],[-41.006,-15.714],[-40.963,-15.648],[-40.903,-15.692],[-40.817,-15.648],[-40.701,-15.667],[-40.561,-15.804],[-40.45,-15.762],[-40.425,-15.806],[-40.236,-15.803],[-40.16,-15.908],[-40.075,-15.92],[-40.004,-16.002],[-39.915,-16],[-39.857,-16.114],[-39.918,-16.284],[-39.99,-16.312],[-40.066,-16.457],[-40.11,-16.449],[-40.173,-16.577],[-40.275,-16.573],[-40.324,-16.801],[-40.251,-16.831],[-40.282,-16.901],[-40.48,-16.877],[-40.543,-16.983],[-40.579,-17.15],[-40.548,-17.284],[-40.595,-17.324],[-40.597,-17.421],[-40.519,-17.447],[-40.418,-17.599],[-40.344,-17.616],[-40.273,-17.727],[-40.224,-17.734],[-40.174,-17.852],[-40.263,-17.922],[-40.222,-17.98],[-40.345,-17.924],[-40.463,-17.928],[-40.517,-17.894],[-40.704,-18.024],[-40.798,-17.957],[-40.902,-17.986],[-40.773,-18.108],[-40.771,-18.156],[-40.909,-18.115],[-41.052,-18.165],[-41.159,-18.308],[-41.144,-18.405],[-41.182,-18.44],[-41.023,-18.457],[-41.051,-18.634],[-40.941,-18.691],[-40.917,-18.815],[-41.11,-18.839],[-41.232,-18.797],[-41.243,-18.854],[-41.166,-18.858],[-41.032,-18.991],[-41.072,-19.026],[-40.964,-19.122],[-40.924,-19.302],[-40.945,-19.461],[-41.041,-19.516],[-41.037,-19.57],[-41.168,-19.672],[-41.187,-19.891],[-41.298,-19.938],[-41.382,-20.189],[-41.416,-20.207],[-41.757,-20.207],[-41.782,-20.294],[-41.859,-20.373],[-41.803,-20.422],[-41.813,-20.653],[-41.875,-20.766],[-41.928,-20.794],[-41.979,-20.935],[-42.138,-20.96],[-42.08,-21.03],[-42.208,-21.179],[-42.19,-21.25],[-42.292,-21.459],[-42.257,-21.482],[-42.365,-21.646],[-42.267,-21.714],[-42.378,-21.748],[-42.788,-21.93],[-42.881,-21.959],[-43.075,-22.093],[-43.142,-22.104],[-43.131,-22.029],[-43.347,-22.004],[-43.464,-22.073],[-43.566,-22.087],[-43.776,-22.066],[-43.977,-22.146],[-44.101,-22.174],[-44.26,-22.268],[-44.433,-22.251],[-44.544,-22.332],[-44.662,-22.38],[-44.73,-22.361],[-44.809,-22.406],[-44.966,-22.475],[-45.124,-22.497],[-45.269,-22.611],[-45.4,-22.654],[-45.48,-22.59],[-45.58,-22.653],[-45.576,-22.602],[-45.812,-22.699],[-45.712,-22.77],[-45.768,-22.836],[-45.909,-22.83],[-46.008,-22.889],[-46.139,-22.923],[-46.141,-22.868],[-46.376,-22.877],[-46.333,-22.766],[-46.453,-22.728],[-46.469,-22.673],[-46.393,-22.663],[-46.415,-22.558],[-46.542,-22.494],[-46.555,-22.447],[-46.666,-22.415],[-46.723,-22.307],[-46.672,-22.178],[-46.613,-22.15],[-46.685,-22.037],[-46.618,-21.995],[-46.691,-21.838],[-46.631,-21.769],[-46.614,-21.676],[-46.565,-21.679],[-46.512,-21.565],[-46.519,-21.449],[-46.616,-21.43],[-46.648,-21.38],[-46.765,-21.36],[-46.933,-21.425],[-47.013,-21.419],[-46.997,-21.357],[-47.118,-21.186],[-47.144,-20.982],[-47.24,-20.885],[-47.169,-20.703],[-47.097,-20.644],[-47.154,-20.52],[-47.291,-20.45],[-47.298,-20.348],[-47.231,-20.219],[-47.262,-20.16],[-47.44,-20.049],[-47.463,-19.966],[-47.584,-19.997],[-47.64,-20.047],[-47.713,-19.978],[-47.851,-19.99],[-47.899,-20.126],[-47.981,-20.036],[-48.02,-20.124],[-48.105,-20.146],[-48.228,-20.028],[-48.219,-20.128],[-48.406,-20.113],[-48.593,-20.136],[-48.647,-20.167],[-48.822,-20.161],[-48.887,-20.275],[-48.867,-20.399],[-48.963,-20.403],[-48.986,-20.171],[-49.066,-20.153],[-49.121,-20.27],[-49.225,-20.305],[-49.299,-20.167],[-49.297,-19.96],[-49.454,-19.978],[-49.514,-19.914],[-49.854,-19.946],[-50.044,-19.916],[-50.106,-19.874],[-50.337,-19.869],[-50.469,-19.78],[-50.578,-19.816],[-50.658,-19.907],[-50.784,-19.937],[-50.969,-20.036],[-51,-20.085],[-51.038,-19.692],[-50.988,-19.589],[-50.924,-19.581],[-50.935,-19.467]]]}},
{"type":"Feature","properties":{"uf":"ES","name":"Espírito Santo"},"geometry":{"type":"Polygon","coordinates":[[[-41.875,-20.766],[-41.813,-20.653],[-41.803,-20.422],[-41.859,-20.373],[-41.782,-20.294],[-41.757,-20.207],[-41.416,-20.207],[-41.382,-20.189],[-41.298,-19.938],[-41.187,-19.891],[-41.168,-19.672],[-41.037,-19.57],[-41.041,-19.516],[-40.945,-19.461],[-40.924,-19.302],[-40.964,-19.122],[-41.072,-19.026],[-41.032,-18.991],[-41.166,-18.858],[-41.243,-18.854],[-41.232,-18.797],[-41.11,-18.839],[-40.917,-18.815],[-40.941,-18.691],[-41.051,-18.634],[-41.023,-18.457],[-41.182,-18.44],[-41.144,-18.405],[-41.159,-18.308],[-41.052,-18.165],[-40.909,-18.115],[-40.771,-18.156],[-40.773,-18.108],[-40.902,-17.986],[-40.798,-17.957],[-40.704,-18.024],[-40.517,-17.894],[-40.463,-17.928],[-40.345,-17.924],[-40.222,-17.98],[-39.668,-18.337],[-39.728,-18.518],[-39.746,-18.706],[-39.743,-18.936],[-39.689,-19.305],[-39.73,-19.468],[-39.811,-19.65],[-39.912,-19.687],[-40.055,-19.815],[-40.159,-20.036],[-40.198,-20.216],[-40.274,-20.32],[-40.431,-20.637],[-40.464,-20.624],[-40.583,-20.801],[-40.759,-20.866],[-40.858,-21.128],[-40.926,-21.19],[-40.961,-21.301],[-41.089,-21.22],[-41.19,-21.249],[-41.388,-21.199],[-41.435,-21.216],[-41.736,-21.103],[-41.71,-20.991],[-41.74,-20.817],[-41.875,-20.766]]]}},
{"type":"Feature","properties":{"uf":"RJ","name":"Rio de Janeiro"},"geometry":{"type":"MultiPolygon","coordinates":[[[[-44.724,-23.368],[-44.889,-23.227],[-44.824,-23.163],[-44.792,-22.982],[-44.555,-22.888],[-44.467,-22.885],[-44.268,-22.829],[-44.258,-22.767],[-44.174,-22.702],[-44.184,-22.637],[-44.382,-22.573],[-44.511,-22.64],[-44.646,-22.604],[-44.755,-22.415],[-44.809,-22.406],[-44.73,-22.361],[-44.662,-22.38],[-44.544,-22.332],[-44.433,-22.251],[-44.26,-22.268],[-44.101,-22.174],[-43.977,-22.146],[-43.776,-22.066],[-43.566,-22.087],[-43.464,-22.073],[-43.347,-22.004],[-43.131,-22.029],[-43.142,-22.104],[-43.075,-22.093],[-42.881,-21.959],[-42.788,-21.93],[-42.378,-21.748],[-42.267,-21.714],[-42.365,-21.646],[-42.257,-21.482],[-42.292,-21.459],[-42.19,-21.25],[-42.208,-21.179],[-42.08,-21.03],[-42.138,-20.96],[-41.979,-20.935],[-41.928,-20.794],[-41.875,-20.766],[-41.74,-20.817],[-41.71,-20.991],[-41.736,-21.103],[-41.435,-21.216],[-41.388,-21.199],[-41.19,-21.249],[-41.089,-21.22],[-40.961,-21.301],[-40.961,-21.36],[-41.073,-21.526],[-41.013,-21.623],[-41.025,-21.719],[-40.982,-21.911],[-41.004,-22.021],[-41.216,-22.137],[-41.451,-22.202],[-41.689,-22.3],[-41.773,-22.364],[-41.933,-22.537],[-41.997,-22.668],[-41.908,-22.778],[-42.02,-22.889],[-42.038,-22.967],[-42.281,-22.939],[-42.579,-22.933],[-43.014,-22.977],[-43.11,-22.954],[-43.134,-22.881],[-43.027,-22.743],[-43.081,-22.68],[-43.277,-22.78],[-43.15,-22.951],[-43.303,-23.016],[-43.42,-23.018],[-43.549,-23.061],[-43.796,-22.917],[-44.074,-22.952],[-44.113,-23.023],[-44.201,-23.038],[-44.303,-23.002],[-44.338,-22.923],[-44.44,-23.003],[-44.684,-23.072],[-44.695,-23.233],[-44.587,-23.232],[-44.527,-23.273],[-44.591,-23.362],[-44.639,-23.331],[-44.724,-23.368]]],[[[-44.35,-23.215],[-44.306,-23.121],[-44.216,-23.09],[-44.094,-23.175],[-44.35,-23.215]]],[[[-43.668,-23.053],[-43.954,-23.087],[-43.973,-23.045],[-43.668,-23.053]]],[[[-43.175,-22.801],[-43.175,-22.801],[-43.175,-22.801],[-43.175,-22.801]]]]}},
{"type":"Feature","properties":{"uf":"SP","name":"São Paulo"},"geometry":{"type":"MultiPolygon","coordinates":[[[[-51,-20.085],[-50.969,-20.036],[-50.784,-19.937],[-50.658,-19.907],[-50.578,-19.816],[-50.469,-19.78],[-50.337,-19.869],[-50.106,-19.874],[-50.044,-19.916],[-49.854,-19.946],[-49.514,-19.914],[-49.454,-19.978],[-49.297,-19.96],[-49.299,-20.167],[-49.225,-20.305],[-49.121,-20.27],[-49.066,-20.153],[-48.986,-20.171],[-48.963,-20.403],[-48.867,-20.399],[-48.887,-20.275],[-48.822,-20.161],[-48.647,-20.167],[-48.593,-20.136],[-48.406,-20.113],[-48.219,-20.128],[-48.228,-20.028],[-48.105,-20.146],[-48.02,-20.124],[-47.981,-20.036],[-47.899,-20.126],[-47.851,-19.99],[-47.713,-19.978],[-47.64,-20.047],[-47.584,-19.997],[-47.463,-19.966],[-47.44,-20.049],[-47.262,-20.16],[-47.231,-20.219],[-47.298,-20.348],[-47.291,-20.45],[-47.154,-20.52],[-47.097,-20.644],[-47.169,-20.703],[-47.24,-20.885],[-47.144,-20.982],[-47.118,-21.186],[-46.997,-21.357],[-47.013,-21.419],[-46.933,-21.425],[-46.765,-21.36],[-46.648,-21.38],[-46.616,-21.43],[-46.519,-21.449],[-46.512,-21.565],[-46.565,-21.679],[-46.614,-21.676],[-46.631,-21.769],[-46.691,-21.838],[-46.618,-21.995],[-46.685,-22.037],[-46.613,-22.15],[-46.672,-22.178],[-46.723,-22.307],[-46.666,-22.415],[-46.555,-22.447],[-46.542,-22.494],[-46.415,-22.558],[-46.393,-22.663],[-46.469,-22.673],[-46.453,-22.728],[-46.333,-22.766],[-46.376,-22.877],[-46.141,-22.868],[-46.139,-22.923],[-46.008,-22.889],[-45.909,-22.83],[-45.768,-22.836],[-45.712,-22.77],[-45.812,-22.699],[-45.576,-22.602],[-45.58,-22.653],[-45.48,-22.59],[-45.4,-22.654],[-45.269,-22.611],[-45.124,-22.497],[-44.966,-22.475],[-44.809,-22.406],[-44.755,-22.415],[-44.646,-22.604],[-44.511,-22.64],[-44.382,-22.573],[-44.184,-22.637],[-44.174,-22.702],[-44.258,-22.767],[-44.268,-22.829],[-44.467,-22.885],[-44.555,-22.888],[-44.792,-22.982],[-44.824,-23.163],[-44.889,-23.227],[-44.724,-23.368],[-44.84,-23.388],[-44.906,-23.334],[-45.054,-23.417],[-45.071,-23.497],[-45.174,-23.496],[-45.244,-23.594],[-45.311,-23.576],[-45.407,-23.624],[-45.427,-23.708],[-45.396,-23.808],[-45.502,-23.841],[-45.555,-23.795],[-45.842,-23.758],[-46.089,-23.822],[-46.198,-23.995],[-46.32,-24.024],[-46.355,-23.971],[-46.845,-24.218],[-46.994,-24.325],[-47.004,-24.409],[-47.245,-24.574],[-47.561,-24.758],[-47.731,-24.881],[-47.909,-25.053],[-47.924,-25.16],[-48.096,-25.309],[-48.023,-25.231],[-48.113,-25.251],[-48.182,-25.205],[-48.158,-25.15],[-48.24,-24.991],[-48.351,-25.036],[-48.412,-24.98],[-48.53,-25.101],[-48.598,-25.003],[-48.567,-24.972],[-48.556,-24.806],[-48.502,-24.746],[-48.617,-24.669],[-48.675,-24.702],[-48.84,-24.665],[-49.01,-24.654],[-49.208,-24.701],[-49.312,-24.663],[-49.316,-24.555],[-49.245,-24.465],[-49.201,-24.345],[-49.287,-24.303],[-49.351,-24.221],[-49.337,-24.138],[-49.409,-24.107],[-49.522,-23.917],[-49.587,-23.889],[-49.549,-23.704],[-49.621,-23.611],[-49.621,-23.493],[-49.582,-23.429],[-49.638,-23.349],[-49.627,-23.282],[-49.726,-23.109],[-49.912,-23.051],[-49.986,-22.897],[-50.133,-22.94],[-50.426,-22.944],[-50.682,-22.906],[-50.71,-22.953],[-50.793,-22.905],[-50.895,-22.794],[-51.004,-22.794],[-51.214,-22.724],[-51.265,-22.668],[-51.446,-22.653],[-51.56,-22.697],[-51.628,-22.658],[-51.718,-22.669],[-51.772,-22.614],[-51.856,-22.632],[-51.94,-22.567],[-52.109,-22.516],[-52.157,-22.645],[-52.223,-22.675],[-52.446,-22.608],[-52.499,-22.634],[-52.589,-22.566],[-52.697,-22.627],[-52.972,-22.57],[-53.105,-22.622],[-52.999,-22.493],[-52.855,-22.439],[-52.798,-22.378],[-52.488,-22.217],[-52.339,-22.048],[-52.319,-21.972],[-52.104,-21.746],[-52.049,-21.643],[-52.102,-21.57],[-52.057,-21.504],[-52,-21.517],[-51.929,-21.456],[-51.861,-21.337],[-51.865,-21.13],[-51.79,-21.102],[-51.714,-20.971],[-51.624,-20.944],[-51.635,-20.755],[-51.575,-20.623],[-51.5,-20.568],[-51.343,-20.356],[-51.161,-20.305],[-51.069,-20.25],[-51,-20.085]]],[[[-45.29,-23.869],[-45.238,-23.909],[-45.444,-23.934],[-45.46,-23.89],[-45.366,-23.809],[-45.34,-23.727],[-45.233,-23.785],[-45.29,-23.869]]]]}},
{"type":"Feature","properties":{"uf":"PR","name":"Paraná"},"geometry":{"type":"MultiPolygon","coordinates":[[[[-53.105,-22.622],[-52.972,-22.57],[-52.697,-22.627],[-52.589,-22.566],[-52.499,-22.634],[-52.446,-22.608],[-52.223,-22.675],[-52.157,-22.645],[-52.109,-22.516],[-51.94,-22.567],[-51.856,-22.632],[-51.772,-22.614],[-51.718,-22.669],[-51.628,-22.658],[-51.56,-22.697],[-51.446,-22.653],[-51.265,-22.668],[-51.214,-22.724],[-51.004,-22.794],[-50.895,-22.794],[-50.793,-22.905],[-50.71,-22.953],[-50.682,-22.906],[-50.426,-22.944],[-50.133,-22.94],[-49.986,-22.897],[-49.912,-23.051],[-49.726,-23.109],[-49.627,-23.282],[-49.638,-23.349],[-49.582,-23.429],[-49.621,-23.493],[-49.621,-23.611],[-49.549,-23.704],[-49.587,-23.889],[-49.522,-23.917],[-49.409,-24.107],[-49.337,-24.138],[-49.351,-24.221],[-49.287,-24.303],[-49.201,-24.345],[-49.245,-24.465],[-49.316,-24.555],[-49.312,-24.663],[-49.208,-24.701],[-49.01,-24.654],[-48.84,-24.665],[-48.675,-24.702],[-48.617,-24.669],[-48.502,-24.746],[-48.556,-24.806],[-48.567,-24.972],[-48.598,-25.003],[-48.53,-25.101],[-48.412,-24.98],[-48.351,-25.036],[-48.24,-24.991],[-48.158,-25.15],[-48.182,-25.205],[-48.113,-25.251],[-48.023,-25.231],[-48.096,-25.309],[-48.32,-25.587],[-48.404,-25.614],[-48.55,-25.852],[-48.595,-25.977],[-48.96,-25.981],[-49.167,-26.001],[-49.3,-26.111],[-49.603,-26.227],[-49.824,-26.094],[-49.869,-26.033],[-49.993,-26.011],[-50.19,-26.07],[-50.247,-26.03],[-50.332,-26.085],[-50.461,-26.026],[-50.628,-26.063],[-50.73,-26.203],[-50.9,-26.289],[-50.909,-26.249],[-51.077,-26.231],[-51.203,-26.298],[-51.293,-26.434],[-51.228,-26.555],[-51.239,-26.628],[-51.391,-26.663],[-51.411,-26.717],[-51.495,-26.587],[-51.658,-26.565],[-51.878,-26.598],[-52.009,-26.567],[-52.112,-26.475],[-52.23,-26.467],[-52.523,-26.4],[-52.596,-26.416],[-52.68,-26.353],[-52.993,-26.348],[-53.093,-26.392],[-53.304,-26.258],[-53.376,-26.242],[-53.496,-26.303],[-53.639,-26.251],[-53.741,-26.118],[-53.734,-26.043],[-53.842,-25.932],[-53.822,-25.799],[-53.878,-25.707],[-53.862,-25.659],[-53.961,-25.629],[-54.011,-25.566],[-54.12,-25.553],[-54.116,-25.498],[-54.203,-25.58],[-54.296,-25.558],[-54.425,-25.659],[-54.593,-25.592],[-54.619,-25.451],[-54.491,-25.278],[-54.425,-25.153],[-54.459,-25.102],[-54.39,-24.777],[-54.332,-24.694],[-54.326,-24.465],[-54.262,-24.375],[-54.346,-24.157],[-54.286,-24.068],[-54.102,-23.952],[-54.084,-23.805],[-53.987,-23.467],[-53.762,-23.359],[-53.637,-23.125],[-53.634,-23.003],[-53.547,-22.89],[-53.327,-22.765],[-53.185,-22.719],[-53.105,-22.622]]],[[[-53.654,-25.351],[-53.654,-25.351],[-53.654,-25.351],[-53.654,-25.351]]],[[[-53.378,-23.241],[-53.378,-23.241],[-53.378,-23.241],[-53.378,-23.241]]]]}},
{"type":"Feature","properties":{"uf":"SC","name":"Santa Catarina"},"geometry":{"type":"Polygon","coordinates":[[[-53.639,-26.251],[-53.496,-26.303],[-53.376,-26.242],[-53.304,-26.258],[-53.093,-26.392],[-52.993,-26.348],[-52.68,-26.353],[-52.596,-26.416],[-52.523,-26.4],[-52.23,-26.467],[-52.112,-26.475],[-52.009,-26.567],[-51.878,-26.598],[-51.658,-26.565],[-51.495,-26.587],[-51.411,-26.717],[-51.391,-26.663],[-51.239,-26.628],[-51.228,-26.555],[-51.293,-26.434],[-51.203,-26.298],[-51.077,-26.231],[-50.909,-26.249],[-50.9,-26.289],[-50.73,-26.203],[-50.628,-26.063],[-50.461,-26.026],[-50.332,-26.085],[-50.247,-26.03],[-50.19,-26.07],[-49.993,-26.011],[-49.869,-26.033],[-49.824,-26.094],[-49.603,-26.227],[-49.3,-26.111],[-49.167,-26.001],[-48.96,-25.981],[-48.595,-25.977],[-48.598,-26.129],[-48.504,-26.237],[-48.651,-26.547],[-48.688,-26.671],[-48.62,-26.789],[-48.642,-26.913],[-48.571,-27.009],[-48.614,-27.1],[-48.553,-27.157],[-48.482,-27.153],[-48.603,-27.218],[-48.595,-27.316],[-48.54,-27.32],[-48.526,-27.408],[-48.417,-27.381],[-48.374,-27.472],[-48.507,-27.744],[-48.498,-27.795],[-48.596,-27.851],[-48.675,-28.256],[-48.765,-28.46],[-48.746,-28.505],[-48.828,-28.607],[-48.975,-28.671],[-49.188,-28.802],[-49.376,-28.956],[-49.516,-29.096],[-49.713,-29.326],[-49.857,-29.233],[-49.958,-29.199],[-50.145,-29.27],[-50.018,-29.163],[-49.958,-29.068],[-49.961,-28.772],[-49.757,-28.616],[-49.704,-28.63],[-49.748,-28.494],[-49.839,-28.496],[-49.971,-28.44],[-50.097,-28.484],[-50.242,-28.432],[-50.544,-28.427],[-50.749,-28.248],[-50.794,-28.139],[-50.859,-28.14],[-50.924,-27.972],[-51.001,-27.963],[-51.053,-27.869],[-51.135,-27.804],[-51.272,-27.752],[-51.315,-27.675],[-51.419,-27.655],[-51.483,-27.563],[-51.578,-27.577],[-51.633,-27.489],[-51.701,-27.48],[-51.837,-27.522],[-51.902,-27.491],[-51.983,-27.375],[-52.107,-27.343],[-52.126,-27.302],[-52.3,-27.319],[-52.48,-27.235],[-52.618,-27.266],[-52.851,-27.17],[-53,-27.207],[-53.018,-27.093],[-53.071,-27.157],[-53.322,-27.21],[-53.296,-27.132],[-53.381,-27.094],[-53.631,-27.213],[-53.686,-27.164],[-53.837,-27.168],[-53.799,-27.147],[-53.797,-27.039],[-53.672,-26.943],[-53.677,-26.844],[-53.74,-26.742],[-53.707,-26.395],[-53.639,-26.251]]]}},
{"type":"Feature","properties":{"uf":"RS","name":"Rio Grande do Sul"},"geometry":{"type":"Polygon","coordinates":[[[-49.713,-29.326],[-49.934,-29.625],[-50.119,-29.976],[-50.306,-30.447],[-50.374,-30.563],[-50.767,-31.11],[-51.267,-31.579],[-51.502,-31.743],[-51.748,-31.87],[-51.921,-31.988],[-52.077,-32.143],[-52.005,-31.951],[-52.098,-31.836],[-52.008,-31.818],[-51.923,-31.863],[-51.811,-31.845],[-51.802,-31.788],[-51.659,-31.767],[-51.428,-31.492],[-51.361,-31.532],[-51.237,-31.457],[-51.157,-31.285],[-51.177,-31.08],[-51.104,-31.099],[-50.955,-31.003],[-50.968,-30.898],[-50.882,-30.892],[-50.754,-30.819],[-50.69,-30.707],[-50.679,-30.609],[-50.706,-30.348],[-50.574,-30.481],[-50.543,-30.252],[-50.659,-30.2],[-50.673,-30.297],[-50.782,-30.285],[-50.797,-30.338],[-50.915,-30.326],[-50.93,-30.436],[-51.047,-30.381],[-51.022,-30.284],[-51.128,-30.248],[-51.259,-30.123],[-51.234,-30.048],[-51.301,-30.054],[-51.328,-30.226],[-51.295,-30.303],[-51.178,-30.386],[-51.223,-30.42],[-51.319,-30.646],[-51.381,-30.643],[-51.404,-30.783],[-51.39,-30.88],[-51.498,-30.918],[-51.446,-31.089],[-51.602,-31.132],[-51.639,-31.271],[-51.919,-31.311],[-51.994,-31.414],[-52.031,-31.692],[-52.152,-31.699],[-52.226,-31.752],[-52.22,-31.873],[-52.139,-31.918],[-52.242,-31.992],[-52.113,-32.009],[-52.156,-32.096],[-52.099,-32.083],[-52.097,-32.162],[-52.234,-32.26],[-52.341,-32.425],[-52.423,-32.629],[-52.495,-32.867],[-52.624,-33.104],[-52.777,-33.283],[-53.156,-33.59],[-53.37,-33.744],[-53.523,-33.689],[-53.511,-33.544],[-53.466,-33.558],[-53.425,-33.438],[-53.469,-33.255],[-53.432,-33.162],[-53.337,-33.083],[-53.277,-33.109],[-53.174,-33.003],[-53.147,-32.819],[-53.002,-32.797],[-52.908,-32.888],[-52.832,-32.915],[-52.73,-32.847],[-52.621,-32.638],[-52.602,-32.461],[-52.688,-32.319],[-52.623,-32.146],[-52.732,-32.16],[-52.821,-32.334],[-52.724,-32.382],[-52.802,-32.447],[-52.983,-32.504],[-52.997,-32.591],[-53.084,-32.657],[-53.289,-32.621],[-53.437,-32.548],[-53.644,-32.385],[-53.643,-32.302],[-53.723,-32.174],[-53.748,-32.078],[-53.833,-32.055],[-53.963,-31.922],[-54.081,-31.93],[-54.455,-31.653],[-54.473,-31.57],[-54.587,-31.456],[-54.739,-31.426],[-54.836,-31.442],[-54.932,-31.385],[-55.002,-31.269],[-55.074,-31.332],[-55.247,-31.252],[-55.371,-31.023],[-55.437,-31.005],[-55.579,-30.84],[-55.642,-30.912],[-55.871,-31.072],[-56.005,-31.082],[-56.024,-30.786],[-56.15,-30.705],[-56.188,-30.605],[-56.386,-30.496],[-56.462,-30.384],[-56.491,-30.398],[-56.658,-30.201],[-56.696,-30.205],[-56.85,-30.089],[-57.078,-30.091],[-57.204,-30.285],[-57.311,-30.258],[-57.419,-30.303],[-57.568,-30.252],[-57.594,-30.179],[-57.465,-30.11],[-57.328,-29.972],[-57.33,-29.888],[-57.235,-29.781],[-57.132,-29.77],[-56.971,-29.643],[-56.902,-29.534],[-56.822,-29.49],[-56.759,-29.371],[-56.664,-29.295],[-56.589,-29.12],[-56.43,-29.079],[-56.379,-28.948],[-56.3,-28.896],[-56.3,-28.808],[-56.194,-28.775],[-56.002,-28.578],[-56.023,-28.523],[-55.884,-28.479],[-55.871,-28.357],[-55.757,-28.369],[-55.692,-28.416],[-55.669,-28.341],[-55.771,-28.241],[-55.564,-28.163],[-55.488,-28.076],[-55.375,-28.034],[-55.387,-27.986],[-55.278,-27.933],[-55.203,-27.858],[-55.025,-27.835],[-55.083,-27.797],[-54.949,-27.779],[-54.903,-27.636],[-54.785,-27.579],[-54.632,-27.546],[-54.573,-27.454],[-54.525,-27.506],[-54.399,-27.412],[-54.284,-27.448],[-54.193,-27.308],[-54.082,-27.299],[-53.947,-27.151],[-53.837,-27.168],[-53.686,-27.164],[-53.631,-27.213],[-53.381,-27.094],[-53.296,-27.132],[-53.322,-27.21],[-53.071,-27.157],[-53.018,-27.093],[-53,-27.207],[-52.851,-27.17],[-52.618,-27.266],[-52.48,-27.235],[-52.3,-27.319],[-52.126,-27.302],[-52.107,-27.343],[-51.983,-27.375],[-51.902,-27.491],[-51.837,-27.522],[-51.701,-27.48],[-51.633,-27.489],[-51.578,-27.577],[-51.483,-27.563],[-51.419,-27.655],[-51.315,-27.675],[-51.272,-27.752],[-51.135,-27.804],[-51.053,-27.869],[-51.001,-27.963],[-50.924,-27.972],[-50.859,-28.14],[-50.794,-28.139],[-50.749,-28.248],[-50.544,-28.427],[-50.242,-28.432],[-50.097,-28.484],[-49.971,-28.44],[-49.839,-28.496],[-49.748,-28.494],[-49.704,-28.63],[-49.757,-28.616],[-49.961,-28.772],[-49.958,-29.068],[-50.018,-29.163],[-50.145,-29.27],[-49.958,-29.199],[-49.857,-29.233],[-49.713,-29.326]]]}},
{"type":"Feature","properties":{"uf":"MS","name":"Mato Grosso do Sul"},"geometry":{"type":"Polygon","coordinates":[[[-57.752,-17.564],[-57.712,-17.543],[-57.609,-17.797],[-57.485,-17.862],[-57.225,-17.783],[-57.101,-17.772],[-56.965,-17.622],[-56.973,-17.58],[-56.876,-17.533],[-56.758,-17.327],[-56.451,-17.326],[-56.336,-17.29],[-56.251,-17.219],[-56.044,-17.171],[-56.012,-17.237],[-55.761,-17.323],[-55.658,-17.339],[-55.515,-17.484],[-55.483,-17.479],[-55.137,-17.65],[-54.943,-17.609],[-54.861,-17.624],[-54.747,-17.52],[-54.57,-17.473],[-54.426,-17.537],[-54.388,-17.632],[-54.302,-17.662],[-54.192,-17.606],[-54.085,-17.619],[-54.058,-17.513],[-53.973,-17.472],[-53.82,-17.295],[-53.705,-17.228],[-53.68,-17.254],[-53.704,-17.661],[-53.856,-17.703],[-53.941,-17.84],[-53.952,-17.916],[-53.854,-17.926],[-53.774,-18.001],[-53.652,-17.976],[-53.468,-18.035],[-53.435,-17.985],[-53.292,-17.996],[-53.174,-18.042],[-53.072,-18.034],[-53.143,-18.084],[-53.1,-18.314],[-53.023,-18.349],[-52.965,-18.299],[-52.776,-18.329],[-52.798,-18.415],[-52.876,-18.431],[-52.962,-18.541],[-52.913,-18.642],[-52.748,-18.692],[-52.589,-18.687],[-52.531,-18.657],[-52.448,-18.692],[-52.305,-18.84],[-52.187,-18.846],[-52.079,-18.951],[-51.897,-18.994],[-51.66,-19.134],[-51.42,-19.166],[-51.092,-19.308],[-50.935,-19.467],[-50.924,-19.581],[-50.988,-19.589],[-51.038,-19.692],[-51,-20.085],[-51.069,-20.25],[-51.161,-20.305],[-51.343,-20.356],[-51.5,-20.568],[-51.575,-20.623],[-51.635,-20.755],[-51.624,-20.944],[-51.714,-20.971],[-51.79,-21.102],[-51.865,-21.13],[-51.861,-21.337],[-51.929,-21.456],[-52,-21.517],[-52.057,-21.504],[-52.102,-21.57],[-52.049,-21.643],[-52.104,-21.746],[-52.319,-21.972],[-52.339,-22.048],[-52.488,-22.217],[-52.798,-22.378],[-52.855,-22.439],[-52.999,-22.493],[-53.105,-22.622],[-53.185,-22.719],[-53.327,-22.765],[-53.547,-22.89],[-53.634,-23.003],[-53.637,-23.125],[-53.762,-23.359],[-53.987,-23.467],[-54.084,-23.805],[-54.102,-23.952],[-54.286,-24.068],[-54.44,-23.904],[-54.589,-23.839],[-54.684,-23.83],[-55.062,-23.993],[-55.107,-23.965],[-55.229,-24.014],[-55.318,-23.963],[-55.349,-23.994],[-55.446,-23.917],[-55.43,-23.79],[-55.475,-23.65],[-55.53,-23.628],[-55.56,-23.483],[-55.504,-23.378],[-55.556,-23.316],[-55.523,-23.198],[-55.596,-23.119],[-55.666,-22.852],[-55.62,-22.753],[-55.625,-22.628],[-55.724,-22.552],[-55.749,-22.383],[-55.804,-22.372],[-55.843,-22.287],[-56.009,-22.293],[-56.213,-22.276],[-56.317,-22.215],[-56.392,-22.08],[-56.519,-22.109],[-56.556,-22.195],[-56.652,-22.257],[-56.683,-22.221],[-56.844,-22.301],[-56.888,-22.245],[-56.997,-22.222],[-57.238,-22.251],[-57.389,-22.205],[-57.581,-22.175],[-57.613,-22.11],[-57.691,-22.088],[-57.748,-22.139],[-57.93,-22.12],[-57.992,-22.09],[-57.916,-21.876],[-57.96,-21.853],[-57.883,-21.689],[-57.962,-21.562],[-57.855,-21.317],[-57.92,-21.285],[-57.853,-21.227],[-57.866,-21.039],[-57.817,-20.981],[-57.929,-20.895],[-57.859,-20.825],[-57.959,-20.798],[-57.873,-20.751],[-57.914,-20.671],[-57.988,-20.687],[-58.013,-20.608],[-57.999,-20.456],[-58.073,-20.388],[-58.091,-20.285],[-58.166,-20.237],[-58.149,-20.152],[-57.963,-20.027],[-57.902,-20.042],[-57.859,-19.972],[-58.131,-19.759],[-57.783,-19.035],[-57.71,-19.035],[-57.72,-18.899],[-57.767,-18.899],[-57.558,-18.241],[-57.455,-18.233],[-57.574,-18.132],[-57.6,-18.043],[-57.721,-17.829],[-57.684,-17.809],[-57.783,-17.637],[-57.752,-17.564]]]}},
{"type":"Feature","properties":{"uf":"MT","name":"Mato Grosso"},"geometry":{"type":"Polygon","coordinates":[[[-58.137,-7.356],[-58.061,-7.395],[-57.897,-7.678],[-57.835,-7.881],[-57.832,-7.961],[-57.642,-8.22],[-57.687,-8.407],[-57.633,-8.527],[-57.593,-8.756],[-57.417,-8.793],[-57.416,-8.859],[-57.289,-8.916],[-57.204,-8.921],[-57.039,-9.098],[-57.06,-9.182],[-56.995,-9.234],[-56.82,-9.246],[-56.754,-9.406],[-56.672,-9.367],[-54.613,-9.536],[-52.257,-9.708],[-51.304,-9.773],[-50.225,-9.841],[-50.303,-10.035],[-50.398,-10.155],[-50.382,-10.212],[-50.418,-10.355],[-50.474,-10.405],[-50.483,-10.49],[-50.603,-10.66],[-50.571,-10.752],[-50.633,-10.932],[-50.609,-11.067],[-50.664,-11.152],[-50.671,-11.287],[-50.742,-11.46],[-50.739,-11.544],[-50.657,-11.593],[-50.664,-11.677],[-50.722,-11.74],[-50.686,-11.859],[-50.639,-11.885],[-50.682,-11.991],[-50.681,-12.217],[-50.624,-12.455],[-50.7,-12.595],[-50.623,-12.735],[-50.625,-12.8],[-50.511,-12.861],[-50.524,-12.971],[-50.571,-13.034],[-50.585,-13.215],[-50.664,-13.435],[-50.759,-13.52],[-50.809,-13.697],[-50.874,-13.734],[-50.84,-13.924],[-50.866,-13.96],[-50.831,-14.083],[-50.899,-14.115],[-50.977,-14.293],[-50.998,-14.414],[-50.964,-14.528],[-51.09,-14.84],[-51.087,-14.921],[-51.276,-15.044],[-51.307,-14.981],[-51.339,-14.975],[-51.341,-14.98],[-51.353,-14.994],[-51.534,-15.065],[-51.647,-15.173],[-51.691,-15.325],[-51.699,-15.485],[-51.756,-15.557],[-51.768,-15.654],[-51.88,-15.824],[-51.948,-15.81],[-52.009,-15.886],[-52.254,-15.894],[-52.328,-16.07],[-52.549,-16.165],[-52.546,-16.26],[-52.659,-16.281],[-52.693,-16.366],[-52.606,-16.486],[-52.726,-16.614],[-52.832,-16.772],[-52.885,-16.777],[-52.972,-16.87],[-53.014,-16.864],[-53.064,-17.016],[-53.209,-17.316],[-53.248,-17.627],[-53.234,-17.713],[-53.16,-17.775],[-53.072,-18.034],[-53.174,-18.042],[-53.292,-17.996],[-53.435,-17.985],[-53.468,-18.035],[-53.652,-17.976],[-53.774,-18.001],[-53.854,-17.926],[-53.952,-17.916],[-53.941,-17.84],[-53.856,-17.703],[-53.704,-17.661],[-53.68,-17.254],[-53.705,-17.228],[-53.82,-17.295],[-53.973,-17.472],[-54.058,-17.513],[-54.085,-17.619],[-54.192,-17.606],[-54.302,-17.662],[-54.388,-17.632],[-54.426,-17.537],[-54.57,-17.473],[-54.747,-17.52],[-54.861,-17.624],[-54.943,-17.609],[-55.137,-17.65],[-55.483,-17.479],[-55.515,-17.484],[-55.658,-17.339],[-55.761,-17.323],[-56.012,-17.237],[-56.044,-17.171],[-56.251,-17.219],[-56.336,-17.29],[-56.451,-17.326],[-56.758,-17.327],[-56.876,-17.533],[-56.973,-17.58],[-56.965,-17.622],[-57.101,-17.772],[-57.225,-17.783],[-57.485,-17.862],[-57.609,-17.797],[-57.712,-17.543],[-57.752,-17.564],[-57.883,-17.449],[-57.996,-17.516],[-58.121,-17.448],[-58.153,-17.384],[-58.264,-17.345],[-58.399,-17.184],[-58.392,-17.04],[-58.477,-16.937],[-58.463,-16.653],[-58.344,-16.518],[-58.356,-16.426],[-58.307,-16.371],[-58.327,-16.27],[-58.389,-16.261],[-58.431,-16.323],[-59.469,-16.28],[-60.174,-16.267],[-60.239,-15.475],[-60.576,-15.097],[-60.245,-15.097],[-60.274,-14.621],[-60.323,-14.61],[-60.34,-14.51],[-60.406,-14.36],[-60.454,-14.314],[-60.481,-14.096],[-60.383,-13.993],[-60.451,-13.927],[-60.487,-13.819],[-60.623,-13.719],[-60.709,-13.693],[-60.686,-13.625],[-60.511,-13.504],[-60.388,-13.455],[-60.372,-13.319],[-60.284,-13.085],[-60.183,-12.968],[-60.117,-12.96],[-60.079,-12.881],[-60.029,-12.619],[-59.948,-12.599],[-59.844,-12.467],[-59.779,-12.341],[-59.887,-12.245],[-59.9,-12.117],[-59.962,-12.056],[-59.984,-11.915],[-60.066,-11.891],[-60.103,-11.819],[-60.115,-11.591],[-59.934,-11.424],[-59.917,-11.338],[-59.959,-11.295],[-59.995,-11.148],[-60.075,-11.105],[-60.191,-11.114],[-60.301,-11.057],[-60.392,-11.094],[-60.46,-10.99],[-61.001,-10.992],[-61.55,-10.986],[-61.525,-10.856],[-61.48,-10.788],[-61.499,-10.699],[-61.462,-10.42],[-61.577,-10.249],[-61.601,-10.15],[-61.508,-9.861],[-61.532,-9.712],[-61.477,-9.63],[-61.508,-9.54],[-61.582,-9.459],[-61.559,-9.385],[-61.628,-9.352],[-61.6,-9.256],[-61.525,-9.243],[-61.556,-9.092],[-61.469,-8.92],[-61.583,-8.799],[-60.42,-8.797],[-58.963,-8.803],[-58.442,-8.799],[-58.328,-8.712],[-58.437,-8.703],[-58.389,-8.595],[-58.418,-8.489],[-58.355,-8.393],[-58.293,-8.071],[-58.375,-7.899],[-58.378,-7.827],[-58.3,-7.777],[-58.202,-7.621],[-58.213,-7.458],[-58.137,-7.356]]]}},
{"type":"Feature","properties":{"uf":"GO","name":"Goiás"},"geometry":{"type":"Polygon","coordinates":[[[-47.31,-16.036],[-47.37,-16.001],[-47.379,-15.887],[-47.315,-15.746],[-47.322,-15.598],[-47.418,-15.546],[-47.418,-15.502],[-48.2,-15.502],[-48.2,-15.623],[-48.241,-15.706],[-48.209,-15.75],[-48.282,-15.831],[-48.251,-15.956],[-48.278,-16.05],[-47.308,-16.05],[-47.352,-16.134],[-47.322,-16.231],[-47.427,-16.399],[-47.459,-16.504],[-47.431,-16.549],[-47.252,-16.664],[-47.208,-16.875],[-47.129,-16.975],[-47.147,-17.032],[-47.348,-17.176],[-47.438,-17.318],[-47.511,-17.326],[-47.537,-17.457],[-47.467,-17.534],[-47.325,-17.524],[-47.265,-17.611],[-47.355,-17.815],[-47.357,-17.894],[-47.283,-18.041],[-47.43,-18.165],[-47.567,-18.211],[-47.61,-18.316],[-47.769,-18.418],[-47.83,-18.411],[-47.955,-18.5],[-48.047,-18.418],[-48.094,-18.431],[-48.272,-18.329],[-48.318,-18.367],[-48.469,-18.371],[-48.561,-18.324],[-48.832,-18.346],[-48.918,-18.306],[-49.079,-18.417],[-49.126,-18.384],[-49.293,-18.564],[-49.406,-18.645],[-49.5,-18.491],[-49.795,-18.644],[-50.029,-18.601],[-50.08,-18.672],[-50.164,-18.664],[-50.314,-18.701],[-50.37,-18.804],[-50.512,-18.952],[-50.495,-19.013],[-50.586,-19.139],[-50.674,-19.136],[-50.817,-19.289],[-50.875,-19.423],[-50.849,-19.498],[-50.935,-19.467],[-51.092,-19.308],[-51.42,-19.166],[-51.66,-19.134],[-51.897,-18.994],[-52.079,-18.951],[-52.187,-18.846],[-52.305,-18.84],[-52.448,-18.692],[-52.531,-18.657],[-52.589,-18.687],[-52.748,-18.692],[-52.913,-18.642],[-52.962,-18.541],[-52.876,-18.431],[-52.798,-18.415],[-52.776,-18.329],[-52.965,-18.299],[-53.023,-18.349],[-53.1,-18.314],[-53.143,-18.084],[-53.072,-18.034],[-53.16,-17.775],[-53.234,-17.713],[-53.248,-17.627],[-53.209,-17.316],[-53.064,-17.016],[-53.014,-16.864],[-52.972,-16.87],[-52.885,-16.777],[-52.832,-16.772],[-52.726,-16.614],[-52.606,-16.486],[-52.693,-16.366],[-52.659,-16.281],[-52.546,-16.26],[-52.549,-16.165],[-52.328,-16.07],[-52.254,-15.894],[-52.009,-15.886],[-51.948,-15.81],[-51.88,-15.824],[-51.768,-15.654],[-51.756,-15.557],[-51.699,-15.485],[-51.691,-15.325],[-51.647,-15.173],[-51.534,-15.065],[-51.353,-14.994],[-51.341,-14.98],[-51.339,-14.975],[-51.307,-14.981],[-51.276,-15.044],[-51.087,-14.921],[-51.09,-14.84],[-50.964,-14.528],[-50.998,-14.414],[-50.977,-14.293],[-50.899,-14.115],[-50.831,-14.083],[-50.866,-13.96],[-50.84,-13.924],[-50.874,-13.734],[-50.809,-13.697],[-50.759,-13.52],[-50.664,-13.435],[-50.585,-13.215],[-50.571,-13.034],[-50.524,-12.971],[-50.511,-12.861],[-50.479,-12.713],[-50.305,-12.492],[-50.206,-12.445],[-50.193,-12.564],[-50.296,-12.711],[-50.286,-12.84],[-49.909,-12.975],[-49.368,-13.272],[-49.339,-13.253],[-49.355,-13.107],[-49.238,-12.884],[-49.118,-12.79],[-48.976,-12.957],[-48.87,-12.803],[-48.736,-12.921],[-48.576,-13.124],[-48.6,-13.288],[-48.554,-13.303],[-48.516,-13.139],[-48.462,-13.275],[-48.385,-13.264],[-48.235,-13.176],[-48.166,-13.189],[-48.156,-13.308],[-48.033,-13.274],[-47.798,-13.329],[-47.68,-13.468],[-47.624,-13.376],[-47.667,-13.208],[-47.646,-13.12],[-47.569,-13.117],[-47.565,-13.18],[-47.417,-13.271],[-47.38,-13.231],[-47.281,-13.265],[-47.225,-13.193],[-47.011,-13.141],[-46.751,-12.969],[-46.455,-12.971],[-46.418,-12.822],[-46.366,-12.863],[-46.371,-12.988],[-46.198,-12.957],[-46.113,-12.918],[-46.125,-12.96],[-46.275,-13.02],[-46.3,-13.128],[-46.292,-13.317],[-46.103,-13.257],[-46.068,-13.295],[-46.135,-13.375],[-46.232,-13.419],[-46.232,-13.583],[-46.163,-13.604],[-46.256,-13.684],[-46.223,-13.765],[-46.277,-13.791],[-46.232,-13.849],[-46.264,-13.947],[-46.22,-13.975],[-46.221,-14.107],[-46.187,-14.153],[-46.061,-14.195],[-45.907,-14.355],[-46.019,-14.472],[-45.981,-14.532],[-46.003,-14.796],[-46.039,-14.875],[-46.088,-14.936],[-46.172,-14.947],[-46.319,-14.9],[-46.322,-14.815],[-46.475,-14.705],[-46.564,-14.783],[-46.522,-14.851],[-46.531,-15.005],[-46.503,-15.051],[-46.625,-15.089],[-46.857,-15.01],[-46.925,-15.057],[-46.888,-15.112],[-46.937,-15.205],[-46.836,-15.326],[-46.93,-15.443],[-46.946,-15.563],[-46.855,-15.618],[-46.813,-15.787],[-46.825,-15.886],[-47.107,-15.958],[-47.137,-15.927],[-47.226,-16.016],[-47.31,-16.036]]]}},
{"type":"Feature","properties":{"uf":"DF","name":"Distrito Federal"},"geometry":{"type":"Polygon","coordinates":[[[-47.308,-16.05],[-48.278,-16.05],[-48.251,-15.956],[-48.282,-15.831],[-48.209,-15.75],[-48.241,-15.706],[-48.2,-15.623],[-48.2,-15.502],[-47.418,-15.502],[-47.418,-15.546],[-47.322,-15.598],[-47.315,-15.746],[-47.379,-15.887],[-47.37,-16.001],[-47.31,-16.036],[-47.308,-16.05]]]}}
]
}
